{
"type": "FeatureCollection",
"name": "ECHELLE_PERIMETRE",
"crs": { "type": "name", "properties": { "name": "urn:ogc:def:crs:EPSG::3857" } },
"features": [
{ "type": "Feature", "properties": { "id": 0 }, "geometry": { "type": "MultiPolygon", "coordinates": [ [ [ [ 225345.281741402111948, 6265539.516174127347767 ], [ 226094.864599277207162, 6265919.161301717162132 ], [ 226146.989345460868208, 6265993.149971603415906 ], [ 226194.78467104837182, 6265960.088629845529795 ], [ 226176.357334646541858, 6265930.675376874394715 ], [ 226180.935007502906956, 6265927.787739349529147 ], [ 226197.232093207043363, 6265930.535674454644322 ], [ 226337.856870777759468, 6265838.964542067609727 ], [ 226308.161283667926909, 6265797.252906615845859 ], [ 226345.027718286961317, 6265764.518147898837924 ], [ 226384.982418653788045, 6265737.203104361891747 ], [ 226212.992866291780956, 6265553.420596652664244 ], [ 226179.171297976456117, 6265519.599028336815536 ], [ 226096.038080646918388, 6265425.777921236120164 ], [ 226077.706593030568911, 6265408.739443302154541 ], [ 226085.222497100650799, 6265348.612210742197931 ], [ 226118.292475008958718, 6265350.115391556173563 ], [ 226185.935611639579292, 6265280.969074111431837 ], [ 226297.17099187662825, 6265299.007243879139423 ], [ 226346.775958739075577, 6265300.510424693115056 ], [ 226396.380925601552008, 6265381.682188649661839 ], [ 226429.450903509830823, 6265321.554956089705229 ], [ 226411.412733741686679, 6265305.019967135041952 ], [ 226464.024062232172582, 6265231.36410724837333 ], [ 226382.852298275422072, 6265142.676439221948385 ], [ 226313.705980830767658, 6265247.899096203036606 ], [ 226092.738401170732686, 6265264.43408515676856 ], [ 226091.788515119231306, 6265227.299481744877994 ], [ 226079.209773844602751, 6265138.166896780952811 ], [ 226572.25308084115386, 6264566.958187453448772 ], [ 226216.851364568865392, 6264488.850329292938113 ], [ 226014.572998842020752, 6264418.143286865204573 ], [ 225840.204024416510947, 6264344.487426976673305 ], [ 225647.796880222711479, 6264347.493788605555892 ], [ 225555.590102556132479, 6264296.435922995209694 ], [ 225444.899176775768865, 6264209.543444664217532 ], [ 225233.860404781764373, 6264480.156933232210577 ], [ 225154.016507678898051, 6264582.2540985327214 ], [ 225191.691633531590924, 6264613.27372417319566 ], [ 225132.205861016002018, 6264690.970604606904089 ], [ 225626.742969943676144, 6265092.033626458607614 ], [ 225350.167079048056621, 6265531.248679640702903 ], [ 225345.281741402111948, 6265539.516174127347767 ] ] ] ] } }
]
}
