{
"type": "FeatureCollection",
"name": "ECHELLE_LOTS",
"crs": { "type": "name", "properties": { "name": "urn:ogc:def:crs:OGC:1.3:CRS84" } },
"features": [
{ "type": "Feature", "properties": { "id": 4, "ilot_id": "P7D", "CLE_PRIMAI": 4 }, "geometry": { "type": "MultiPolygon", "coordinates": [ [ [ [ 2.031481226886791, 48.946099656915756 ], [ 2.032022704965658, 48.945729301025757 ], [ 2.031531127549056, 48.945413330304142 ], [ 2.031408826604697, 48.945334519996869 ], [ 2.031210162390902, 48.945233061361741 ], [ 2.031157226735374, 48.945211262317507 ], [ 2.030846800582196, 48.945083459331052 ], [ 2.030762559401019, 48.945107860859892 ], [ 2.030691614786264, 48.945363760882088 ], [ 2.031210835768136, 48.945941426987801 ], [ 2.031481226886791, 48.946099656915756 ] ] ] ] } },
{ "type": "Feature", "properties": { "id": 3, "ilot_id": "P7C", "CLE_PRIMAI": 3 }, "geometry": { "type": "MultiPolygon", "coordinates": [ [ [ [ 2.030882518160215, 48.94649500635618 ], [ 2.031061585968139, 48.946412399199893 ], [ 2.031448639230978, 48.946152783376021 ], [ 2.031079639781182, 48.945936843577698 ], [ 2.030800701643455, 48.945626508100943 ], [ 2.030729768772546, 48.945592206329287 ], [ 2.030632455898922, 48.945577118559861 ], [ 2.030471593793923, 48.946046861141468 ], [ 2.030498895567789, 48.946133531039422 ], [ 2.030882518160215, 48.94649500635618 ] ] ] ] } },
{ "type": "Feature", "properties": { "id": 1, "ilot_id": "P7A", "CLE_PRIMAI": 1 }, "geometry": { "type": "MultiPolygon", "coordinates": [ [ [ [ 2.032214472569523, 48.946569714114879 ], [ 2.032833399713911, 48.946293914039948 ], [ 2.032833402465549, 48.946251598700975 ], [ 2.032090312786318, 48.945773738377156 ], [ 2.031564775645782, 48.946151930366248 ], [ 2.03221098290101, 48.946571261809424 ], [ 2.032214472569523, 48.946569714114879 ] ] ] ] } },
{ "type": "Feature", "properties": { "id": 2, "ilot_id": "P7B", "CLE_PRIMAI": 2 }, "geometry": { "type": "MultiPolygon", "coordinates": [ [ [ [ 2.031328208120647, 48.946911729785093 ], [ 2.031414770676695, 48.946926084721163 ], [ 2.032145153004718, 48.946600595387046 ], [ 2.03150736189814, 48.946190448394518 ], [ 2.03112717945323, 48.946445167130776 ], [ 2.030929694837216, 48.946539115259455 ], [ 2.031328208120647, 48.946911729785093 ] ] ] ] } },
{ "type": "Feature", "properties": { "id": 7, "ilot_id": "P2", "CLE_PRIMAI": 7 }, "geometry": { "type": "MultiPolygon", "coordinates": [ [ [ [ 2.028459084055178, 48.945995231270309 ], [ 2.0292169971315, 48.946181385281143 ], [ 2.029389417579812, 48.945790391492935 ], [ 2.028673104768113, 48.945664897037787 ], [ 2.028410480215885, 48.945682503425054 ], [ 2.028459084055178, 48.945995231270309 ] ] ] ] } },
{ "type": "Feature", "properties": { "id": 8, "ilot_id": "P2'", "CLE_PRIMAI": 8 }, "geometry": { "type": "MultiPolygon", "coordinates": [ [ [ [ 2.029371819182665, 48.946219411648492 ], [ 2.030018156081599, 48.946378160326077 ], [ 2.030206869351338, 48.946016425153722 ], [ 2.030141793871453, 48.945955606489214 ], [ 2.029534267084828, 48.945849561333759 ], [ 2.029371819182665, 48.946219411648492 ] ] ] ] } },
{ "type": "Feature", "properties": { "id": 9, "ilot_id": "P3", "CLE_PRIMAI": 9 }, "geometry": { "type": "MultiPolygon", "coordinates": [ [ [ [ 2.029024266090456, 48.946518102264186 ], [ 2.029101465641988, 48.946493922427464 ], [ 2.029187717410545, 48.946252508476206 ], [ 2.028671621227454, 48.946124165032742 ], [ 2.028481114640038, 48.946136976199831 ], [ 2.028515341065095, 48.946356512376795 ], [ 2.02899963589515, 48.946510281889559 ], [ 2.029024266090456, 48.946518102264186 ] ] ] ] } }
]
}
