{
"type": "FeatureCollection",
"name": "ECHELLE3_BATISV2",
"crs": { "type": "name", "properties": { "name": "urn:ogc:def:crs:OGC:1.3:CRS84" } },
"features": [
{ "type": "Feature", "properties": { "id": 1, "CLE_PRIMAI": "1", "id-lot": "P7D" }, "geometry": { "type": "MultiPolygon", "coordinates": [ [ [ [ 2.031110201208427, 48.945800464625165 ], [ 2.03127511299307, 48.945736526621538 ], [ 2.030875488985744, 48.945291688646421 ], [ 2.030934608515611, 48.945078442135554 ], [ 2.03082943785472, 48.945035141594026 ], [ 2.030745196664138, 48.945059543115342 ], [ 2.030674252058788, 48.945315443178778 ], [ 2.031110201208427, 48.945800464625165 ] ] ] ] } },
{ "type": "Feature", "properties": { "id": 2, "CLE_PRIMAI": "2", "id-lot": "P7D" }, "geometry": { "type": "MultiPolygon", "coordinates": [ [ [ [ 2.031463864159316, 48.946051339212445 ], [ 2.031813209552738, 48.945812430536712 ], [ 2.031694820280609, 48.945737757070717 ], [ 2.031341224145615, 48.945979571707582 ], [ 2.031463864159316, 48.946051339212445 ] ] ] ] } },
{ "type": "Feature", "properties": { "id": 3, "CLE_PRIMAI": "3", "id-lot": "P7D" }, "geometry": { "type": "MultiPolygon", "coordinates": [ [ [ [ 2.031419385738364, 48.945449981566099 ], [ 2.031534195893224, 48.945373125752241 ], [ 2.031411894948866, 48.945294315448301 ], [ 2.031213230735072, 48.945192856817457 ], [ 2.031160295079543, 48.945171057774154 ], [ 2.031073111005625, 48.945262401793663 ], [ 2.031303757433359, 48.94537565319645 ], [ 2.031419385738364, 48.945449981566099 ] ] ] ] } },
{ "type": "Feature", "properties": { "id": 4, "CLE_PRIMAI": "4", "id-lot": "P7D" }, "geometry": { "type": "MultiPolygon", "coordinates": [ [ [ [ 2.031884018611142, 48.945762177809428 ], [ 2.03197970334123, 48.945697977465485 ], [ 2.03162779936284, 48.945471741274858 ], [ 2.031532114632752, 48.94553594190986 ], [ 2.031884018611142, 48.945762177809428 ] ] ] ] } },
{ "type": "Feature", "properties": { "id": null, "CLE_PRIMAI": null, "id-lot": null }, "geometry": { "type": "MultiPolygon", "coordinates": [ ] } },
{ "type": "Feature", "properties": { "id": 5, "CLE_PRIMAI": "5", "id-lot": "L1" }, "geometry": { "type": "MultiPolygon", "coordinates": [ [ [ [ 2.027222441168049, 48.94236240656722 ], [ 2.027215985968566, 48.942252229145993 ], [ 2.026963183433866, 48.942258620452279 ], [ 2.026555289696326, 48.942062234021066 ], [ 2.026455667841752, 48.942151499622362 ], [ 2.026910121472691, 48.942370302557656 ], [ 2.027222441168049, 48.94236240656722 ] ] ] ] } },
{ "type": "Feature", "properties": { "id": 7, "CLE_PRIMAI": "7", "id-lot": "L1" }, "geometry": { "type": "MultiPolygon", "coordinates": [ [ [ [ 2.027008740034259, 48.942074078830373 ], [ 2.027205137858553, 48.94206915523268 ], [ 2.027196620401624, 48.941921695960744 ], [ 2.026897229140792, 48.941818764204363 ], [ 2.026897229140792, 48.941818764204363 ], [ 2.026630645695365, 48.94182588362213 ], [ 2.02663863209387, 48.941954903523225 ], [ 2.026852660920464, 48.941949187892106 ], [ 2.027004516434667, 48.942001396084201 ], [ 2.027008740034259, 48.942074078830373 ] ] ] ] } },
{ "type": "Feature", "properties": { "id": 6, "CLE_PRIMAI": "6", "id-lot": "L1" }, "geometry": { "type": "MultiPolygon", "coordinates": [ [ [ [ 2.026077155608689, 48.941969258982752 ], [ 2.026348966541481, 48.942100126678483 ], [ 2.026448588396053, 48.94201086098527 ], [ 2.026182796495094, 48.941882891022843 ], [ 2.026077155608689, 48.941969258982752 ] ] ] ] } },
{ "type": "Feature", "properties": { "id": 12, "CLE_PRIMAI": "12", "id-lot": "L1'" }, "geometry": { "type": "MultiPolygon", "coordinates": [ [ [ [ 2.025987889193104, 48.941923643552727 ], [ 2.02609400528563, 48.941837661166488 ], [ 2.025835263834682, 48.941697367949629 ], [ 2.02572798931363, 48.941782722461696 ], [ 2.025987889193104, 48.941923643552727 ] ] ] ] } },
{ "type": "Feature", "properties": { "id": 11, "CLE_PRIMAI": "11", "id-lot": "L1'" }, "geometry": { "type": "MultiPolygon", "coordinates": [ [ [ [ 2.025640006912751, 48.941735017170799 ], [ 2.025747281433807, 48.941649662577156 ], [ 2.025483879781738, 48.941506841992776 ], [ 2.025394491274177, 48.94158200010127 ], [ 2.025394491274177, 48.94158200010127 ], [ 2.025394491582599, 48.941601895076559 ], [ 2.025640006912751, 48.941735017170799 ] ] ] ] } },
{ "type": "Feature", "properties": { "id": 13, "CLE_PRIMAI": "13", "id-lot": "L1'" }, "geometry": { "type": "MultiPolygon", "coordinates": [ [ [ [ 2.026117954025737, 48.941737596606146 ], [ 2.026763427299444, 48.941721184729168 ], [ 2.026757268536859, 48.941610577698398 ], [ 2.026111435883672, 48.941626999126029 ], [ 2.026117954025737, 48.941737596606146 ] ] ] ] } },
{ "type": "Feature", "properties": { "id": 14, "CLE_PRIMAI": "14", "id-lot": "L1'" }, "geometry": { "type": "MultiPolygon", "coordinates": [ [ [ [ 2.026919323058562, 48.941744570458496 ], [ 2.027087688617193, 48.941739998608384 ], [ 2.027087688617193, 48.941739998608384 ], [ 2.027067048995245, 48.941371355683096 ], [ 2.026898668990597, 48.94137565027242 ], [ 2.026919323058562, 48.941744570458496 ] ] ] ] } },
{ "type": "Feature", "properties": { "id": 8, "CLE_PRIMAI": "8", "id-lot": "L1'" }, "geometry": { "type": "MultiPolygon", "coordinates": [ [ [ [ 2.025583223157445, 48.941423312573015 ], [ 2.025742604452269, 48.941505091685976 ], [ 2.025916168129973, 48.941359156612215 ], [ 2.025914463215119, 48.941293028555535 ], [ 2.025804982543998, 48.941236853406963 ], [ 2.025583223157445, 48.941423312573015 ] ] ] ] } },
{ "type": "Feature", "properties": { "id": 9, "CLE_PRIMAI": "9", "id-lot": "L1'" }, "geometry": { "type": "MultiPolygon", "coordinates": [ [ [ [ 2.026109822845021, 48.941525910708982 ], [ 2.026306274167454, 48.94152075602976 ], [ 2.026300891229149, 48.941390999608636 ], [ 2.026420848130133, 48.941387487113893 ], [ 2.026412973554104, 48.941258626091773 ], [ 2.026295530927467, 48.941261788510957 ], [ 2.026289395646428, 48.941113895977033 ], [ 2.026092939503722, 48.94111893450421 ], [ 2.026109822845021, 48.941525910708982 ] ] ] ] } },
{ "type": "Feature", "properties": { "id": 10, "CLE_PRIMAI": "10", "id-lot": "L1'" }, "geometry": { "type": "MultiPolygon", "coordinates": [ [ [ [ 2.026581356150852, 48.941254363597643 ], [ 2.027060256318442, 48.941241955084621 ], [ 2.027051546154084, 48.941094458272921 ], [ 2.026573108629408, 48.941106619565495 ], [ 2.026581356150852, 48.941254363597643 ] ] ] ] } },
{ "type": "Feature", "properties": { "id": 36, "CLE_PRIMAI": "36", "id-lot": "L8" }, "geometry": { "type": "MultiPolygon", "coordinates": [ [ [ [ 2.025204819818154, 48.941498408886723 ], [ 2.025310864436409, 48.941412381561904 ], [ 2.025053421715727, 48.94127182292538 ], [ 2.024945706817676, 48.941356938558265 ], [ 2.025204819818154, 48.941498408886723 ] ] ] ] } },
{ "type": "Feature", "properties": { "id": 37, "CLE_PRIMAI": "37", "id-lot": "L8" }, "geometry": { "type": "MultiPolygon", "coordinates": [ [ [ [ 2.024837501757369, 48.941298151590829 ], [ 2.024945216655419, 48.941213035857686 ], [ 2.024686046360498, 48.941071534250227 ], [ 2.024578331462448, 48.941156650224691 ], [ 2.024837501757369, 48.941298151590829 ] ] ] ] } },
{ "type": "Feature", "properties": { "id": 38, "CLE_PRIMAI": "38", "id-lot": "L8" }, "geometry": { "type": "MultiPolygon", "coordinates": [ [ [ [ 2.024469976963177, 48.94109740401143 ], [ 2.0245776596462, 48.941012270351557 ], [ 2.024276561778218, 48.940847951942665 ], [ 2.024173590606568, 48.940935664609292 ], [ 2.024469976963177, 48.94109740401143 ] ] ] ] } },
{ "type": "Feature", "properties": { "id": null, "CLE_PRIMAI": null, "id-lot": "L8" }, "geometry": { "type": "MultiPolygon", "coordinates": [ [ [ [ 2.024470233132619, 48.940682978837344 ], [ 2.024796788796449, 48.940859341503966 ], [ 2.024921523696934, 48.940759696419462 ], [ 2.024594968033105, 48.94058333340076 ], [ 2.024470233132619, 48.940682978837344 ] ] ] ] } },
{ "type": "Feature", "properties": { "id": 34, "CLE_PRIMAI": "34", "id-lot": "L8" }, "geometry": { "type": "MultiPolygon", "coordinates": [ [ [ [ 2.024977341781938, 48.941091086599975 ], [ 2.025078936281524, 48.941011728455834 ], [ 2.02523264253947, 48.941094939192119 ], [ 2.025356244373015, 48.940994475182904 ], [ 2.025051608138952, 48.940830053172149 ], [ 2.024826041144466, 48.941008637147917 ], [ 2.024977341781938, 48.941091086599975 ] ] ] ] } },
{ "type": "Feature", "properties": { "id": 33, "CLE_PRIMAI": "33", "id-lot": "L8" }, "geometry": { "type": "MultiPolygon", "coordinates": [ [ [ [ 2.025414102925982, 48.941328630530229 ], [ 2.025607046025734, 48.941172105114553 ], [ 2.025607046025734, 48.941172105114553 ], [ 2.025598173533677, 48.941125132923304 ], [ 2.025486406495387, 48.941064771376368 ], [ 2.025261313163496, 48.941247374858584 ], [ 2.025414102925982, 48.941328630530229 ] ] ] ] } },
{ "type": "Feature", "properties": { "id": 15, "CLE_PRIMAI": "15", "id-lot": "L2-3" }, "geometry": { "type": "MultiPolygon", "coordinates": [ [ [ [ 2.026089356453329, 48.941017488249884 ], [ 2.026622159636985, 48.941003821066801 ], [ 2.026615585014403, 48.940893223403002 ], [ 2.026084448749512, 48.94090685047739 ], [ 2.026089356453329, 48.941017488249884 ] ] ] ] } },
{ "type": "Feature", "properties": { "id": 16, "CLE_PRIMAI": "16", "id-lot": "L2-3" }, "geometry": { "type": "MultiPolygon", "coordinates": [ [ [ [ 2.026776504795503, 48.940999827596578 ], [ 2.026944887939991, 48.940995574547209 ], [ 2.02691898353797, 48.940552740991201 ], [ 2.026750598044343, 48.94055695455171 ], [ 2.026776504795503, 48.940999827596578 ] ] ] ] } },
{ "type": "Feature", "properties": { "id": 18, "CLE_PRIMAI": "18", "id-lot": "L2-3" }, "geometry": { "type": "MultiPolygon", "coordinates": [ [ [ [ 2.026715110177396, 48.940428316257545 ], [ 2.026911500264851, 48.940423308073854 ], [ 2.026902151395296, 48.9402651337302 ], [ 2.026902151395296, 48.9402651337302 ], [ 2.026747783869213, 48.940212148576002 ], [ 2.026403881779757, 48.940221039197887 ], [ 2.026411762333524, 48.940350000721686 ], [ 2.026674874861419, 48.940343252548452 ], [ 2.026709998673111, 48.940355327389952 ], [ 2.026715100329256, 48.940428175632782 ], [ 2.026715110177396, 48.940428316257545 ] ] ] ] } },
{ "type": "Feature", "properties": { "id": 17, "CLE_PRIMAI": "17", "id-lot": "L2-3" }, "geometry": { "type": "MultiPolygon", "coordinates": [ [ [ [ 2.026078376950372, 48.940767898675659 ], [ 2.026274886535105, 48.940764155610317 ], [ 2.026266203063332, 48.940569390650694 ], [ 2.026385772793154, 48.940566069863614 ], [ 2.026377898217126, 48.940437206720674 ], [ 2.026260410503669, 48.940439466658496 ], [ 2.02625659916786, 48.940353980265421 ], [ 2.026060147337232, 48.940359018758762 ], [ 2.026078376950372, 48.940767898675659 ] ] ] ] } },
{ "type": "Feature", "properties": { "id": 47, "CLE_PRIMAI": "47", "id-lot": "L9'" }, "geometry": { "type": "MultiPolygon", "coordinates": [ [ [ [ 2.025690857553582, 48.941019953604538 ], [ 2.025829535264956, 48.940909170259616 ], [ 2.025849362636511, 48.940794570667954 ], [ 2.025854062195775, 48.940767411152017 ], [ 2.025846937029453, 48.940610521437407 ], [ 2.0256504349852, 48.940614432042956 ], [ 2.025657223366025, 48.940763776439553 ], [ 2.025655096552076, 48.940780072888352 ], [ 2.025645606875432, 48.940852786297093 ], [ 2.025539004928639, 48.940937945636485 ], [ 2.025690857553582, 48.941019953604538 ] ] ] ] } },
{ "type": "Feature", "properties": { "id": 44, "CLE_PRIMAI": "44", "id-lot": "L9'" }, "geometry": { "type": "MultiPolygon", "coordinates": [ [ [ [ 2.025399513668204, 48.940826820835568 ], [ 2.025506547651805, 48.940741314816385 ], [ 2.025104058356336, 48.94052395757425 ], [ 2.024997033336036, 48.940609456805269 ], [ 2.025399513668204, 48.940826820835568 ] ] ] ] } },
{ "type": "Feature", "properties": { "id": 46, "CLE_PRIMAI": "46", "id-lot": "L9'" }, "geometry": { "type": "MultiPolygon", "coordinates": [ [ [ [ 2.025644205526025, 48.94047602619387 ], [ 2.025840653820385, 48.940472170450398 ], [ 2.025829914313657, 48.940235689742785 ], [ 2.025829914313657, 48.940235689742785 ], [ 2.025631686166621, 48.940240778716692 ], [ 2.025644205526025, 48.94047602619387 ] ] ] ] } },
{ "type": "Feature", "properties": { "id": null, "CLE_PRIMAI": null, "id-lot": "L9'" }, "geometry": { "type": "MultiPolygon", "coordinates": [ [ [ [ 2.02546988149837, 48.940355696320147 ], [ 2.025463306875787, 48.940245097220128 ], [ 2.025191625291877, 48.940252060328596 ], [ 2.025191625291877, 48.940252060328596 ], [ 2.024799483675141, 48.940039980821794 ], [ 2.024692373591743, 48.94012542721682 ], [ 2.025134064545954, 48.940364309176211 ], [ 2.02546988149837, 48.940355696320147 ], [ 2.02546988149837, 48.940355696320147 ] ] ] ] } },
{ "type": "Feature", "properties": { "id": 43, "CLE_PRIMAI": "43", "id-lot": "L9'" }, "geometry": { "type": "MultiPolygon", "coordinates": [ [ [ [ 2.02486689711989, 48.940539138208472 ], [ 2.024973931103493, 48.940453631696457 ], [ 2.024571441808023, 48.940236273201457 ], [ 2.02446441678772, 48.940321772925316 ], [ 2.02486689711989, 48.940539138208472 ], [ 2.02486689711989, 48.940539138208472 ] ] ] ] } },
{ "type": "Feature", "properties": { "id": 42, "CLE_PRIMAI": "42", "id-lot": "L9'" }, "geometry": { "type": "MultiPolygon", "coordinates": [ [ [ [ 2.024336343503972, 48.940252604910711 ], [ 2.024669340874168, 48.939969594691988 ], [ 2.024539193567791, 48.939899200147565 ], [ 2.024539193567791, 48.939899200147565 ], [ 2.024207648691742, 48.940180977401113 ], [ 2.024336343503972, 48.940252604910711 ], [ 2.024336343503972, 48.940252604910711 ] ] ] ] } },
{ "type": "Feature", "properties": { "id": 39, "CLE_PRIMAI": "39", "id-lot": "L9" }, "geometry": { "type": "MultiPolygon", "coordinates": [ [ [ [ 2.02540590669212, 48.940145031046256 ], [ 2.025825306535047, 48.940134274030932 ], [ 2.025820280050255, 48.940023634732917 ], [ 2.025399331859714, 48.940034431484818 ], [ 2.02540590669212, 48.940145031046256 ] ] ] ] } },
{ "type": "Feature", "properties": { "id": 40, "CLE_PRIMAI": "40", "id-lot": "L9" }, "geometry": { "type": "MultiPolygon", "coordinates": [ [ [ [ 2.025089212652857, 48.940065249421998 ], [ 2.025291229616281, 48.939893557562897 ], [ 2.025395935059377, 48.939929556968757 ], [ 2.025487103527302, 48.939815150245323 ], [ 2.025236429777279, 48.939728964360228 ], [ 2.024938584370293, 48.939982182317408 ], [ 2.025089212652857, 48.940065249421998 ] ] ] ] } },
{ "type": "Feature", "properties": { "id": 41, "CLE_PRIMAI": "41", "id-lot": "L9" }, "geometry": { "type": "MultiPolygon", "coordinates": [ [ [ [ 2.024789154697253, 48.93989784153684 ], [ 2.025058757226321, 48.939667877434879 ], [ 2.024933769412329, 48.939624897202627 ], [ 2.024933769412329, 48.939624897202627 ], [ 2.024843844859487, 48.939640278391138 ], [ 2.024633696442087, 48.939818888784387 ], [ 2.024789154697253, 48.93989784153684 ] ] ] ] } },
{ "type": "Feature", "properties": { "id": 68, "CLE_PRIMAI": "68", "id-lot": "L11'" }, "geometry": { "type": "MultiPolygon", "coordinates": [ [ [ [ 2.02497896992509, 48.939505096233205 ], [ 2.025472500981492, 48.939674101700128 ], [ 2.025593801038096, 48.939715638083989 ], [ 2.025736083394515, 48.939765412270404 ], [ 2.025806904303038, 48.939729471469676 ], [ 2.02580613248782, 48.939712220932392 ], [ 2.025791478242619, 48.939235283846095 ], [ 2.025806192206537, 48.939174473887874 ], [ 2.025870850761597, 48.939001883960337 ], [ 2.025456959658952, 48.938777840270156 ], [ 2.025388667376831, 48.938875689973763 ], [ 2.025459227784981, 48.938900551403805 ], [ 2.025518474554613, 48.938926664495767 ], [ 2.025480431729799, 48.938973241400376 ], [ 2.025566816370739, 48.939003684413898 ], [ 2.02569247834787, 48.939052156217976 ], [ 2.025763405956402, 48.939077151944367 ], [ 2.025710960137658, 48.939141362643468 ], [ 2.025585458845642, 48.93909713454385 ], [ 2.025538323982501, 48.939154842880775 ], [ 2.025583768059875, 48.939166670885292 ], [ 2.025535305467887, 48.939226004718897 ], [ 2.025592638261498, 48.939246209402747 ], [ 2.025553137928194, 48.939294570472036 ], [ 2.025593361972673, 48.939308745832548 ], [ 2.025550210351024, 48.939361577179518 ], [ 2.025590524161385, 48.939375784155587 ], [ 2.025544717052792, 48.939431866586695 ], [ 2.025614400260123, 48.939456423584723 ], [ 2.025576891543405, 48.939502346083785 ], [ 2.025445431633488, 48.939456019389908 ], [ 2.025422860585708, 48.939483653454715 ], [ 2.025054840340437, 48.939353959659265 ], [ 2.02497896992509, 48.939505096233205 ] ] ] ] } },
{ "type": "Feature", "properties": { "id": 19, "CLE_PRIMAI": "19", "id-lot": "L4" }, "geometry": { "type": "MultiPolygon", "coordinates": [ [ [ [ 2.026049792722931, 48.94012851803118 ], [ 2.02647242005029, 48.940117670493237 ], [ 2.026465840497887, 48.940007071233623 ], [ 2.026044733004298, 48.940017879544726 ], [ 2.026049792722931, 48.94012851803118 ] ] ] ] } },
{ "type": "Feature", "properties": { "id": 20, "CLE_PRIMAI": "20", "id-lot": "L4" }, "geometry": { "type": "MultiPolygon", "coordinates": [ [ [ [ 2.026627425878266, 48.940113657596257 ], [ 2.026795809022754, 48.940109404471393 ], [ 2.026769302540021, 48.93966085551515 ], [ 2.026600921854234, 48.939665150269015 ], [ 2.026627425878266, 48.940113657596257 ] ] ] ] } },
{ "type": "Feature", "properties": { "id": 21, "CLE_PRIMAI": "21", "id-lot": "L4" }, "geometry": { "type": "MultiPolygon", "coordinates": [ [ [ [ 2.026039664932858, 48.939907249234828 ], [ 2.026236228588592, 48.939903433695882 ], [ 2.026225938450318, 48.939674714674787 ], [ 2.026331140258795, 48.939672031375451 ], [ 2.026323244148815, 48.939542813526145 ], [ 2.026220126513755, 48.9395455322312 ], [ 2.026215673542894, 48.939446555415877 ], [ 2.026019109887157, 48.939450370989739 ], [ 2.026039142592506, 48.939895636355459 ], [ 2.026039664932858, 48.939907249234828 ] ] ] ] } },
{ "type": "Feature", "properties": { "id": 22, "CLE_PRIMAI": "22", "id-lot": "L4" }, "geometry": { "type": "MultiPolygon", "coordinates": [ [ [ [ 2.026565160445232, 48.939536784084204 ], [ 2.026761691872623, 48.939531819915317 ], [ 2.026752971908552, 48.939384314684467 ], [ 2.026148815168347, 48.939129305750541 ], [ 2.026148815168347, 48.939129305750541 ], [ 2.026069609527083, 48.93914973579497 ], [ 2.026037377964046, 48.939235773580627 ], [ 2.026293151530521, 48.939343729321621 ], [ 2.026434915204885, 48.939403564186492 ], [ 2.026560443912839, 48.939456546622395 ], [ 2.026565160445232, 48.939536784084204 ] ] ] ] } },
{ "type": "Feature", "properties": { "id": 32, "CLE_PRIMAI": "32", "id-lot": "L5'" }, "geometry": { "type": "MultiPolygon", "coordinates": [ [ [ [ 2.02644385374393, 48.939077341654212 ], [ 2.026619755917416, 48.939063429252208 ], [ 2.026536955590672, 48.938628659098377 ], [ 2.026347406716126, 48.938644223995055 ], [ 2.026428635409818, 48.939071036687544 ], [ 2.02644385374393, 48.939077341654212 ] ] ] ] } },
{ "type": "Feature", "properties": { "id": 31, "CLE_PRIMAI": "31", "id-lot": "L5'" }, "geometry": { "type": "MultiPolygon", "coordinates": [ [ [ [ 2.026228291789148, 48.938986263698709 ], [ 2.026305578318417, 48.938916648856342 ], [ 2.026275479717617, 48.938902231090587 ], [ 2.026293374572989, 48.938886112512407 ], [ 2.026037198704546, 48.938763399501525 ], [ 2.025942017319904, 48.938849133152978 ], [ 2.026047773040855, 48.938902929903584 ], [ 2.026228291789148, 48.938986263698709 ] ] ] ] } },
{ "type": "Feature", "properties": { "id": 29, "CLE_PRIMAI": "29", "id-lot": "L5'" }, "geometry": { "type": "MultiPolygon", "coordinates": [ [ [ [ 2.025794637553078, 48.938769274905709 ], [ 2.025922044224619, 48.938666378403546 ], [ 2.025944038327916, 48.938664502338298 ], [ 2.025917391470368, 48.938529711856582 ], [ 2.025895397367072, 48.93853158792691 ], [ 2.025792593752466, 48.93847575865427 ], [ 2.025573566528958, 48.938649648446201 ], [ 2.025794637553078, 48.938769274905709 ] ] ] ] } },
{ "type": "Feature", "properties": { "id": 30, "CLE_PRIMAI": "30", "id-lot": "L5'" }, "geometry": { "type": "MultiPolygon", "coordinates": [ [ [ [ 2.02614497729022, 48.938525683100032 ], [ 2.026511627954177, 48.938495575329128 ], [ 2.026490559985297, 48.938384863382907 ], [ 2.026490559985297, 48.938384863382907 ], [ 2.026128915760428, 48.9383034693778 ], [ 2.026152443985958, 48.938427098650713 ], [ 2.026126618957868, 48.938429219294136 ], [ 2.02614497729022, 48.938525683100032 ] ] ] ] } },
{ "type": "Feature", "properties": { "id": 28, "CLE_PRIMAI": "28", "id-lot": "L5" }, "geometry": { "type": "MultiPolygon", "coordinates": [ [ [ [ 2.026069089902436, 48.938223564139598 ], [ 2.026149013788689, 48.938213030610662 ], [ 2.026122081514591, 48.938118641774828 ], [ 2.02604018517781, 48.938128920779832 ], [ 2.026069089902436, 48.938223564139598 ] ] ] ] } },
{ "type": "Feature", "properties": { "id": 27, "CLE_PRIMAI": "27", "id-lot": "L5" }, "geometry": { "type": "MultiPolygon", "coordinates": [ [ [ [ 2.026183404035784, 48.938208193430363 ], [ 2.026348441094565, 48.93818712334069 ], [ 2.026282177567725, 48.937954258289636 ], [ 2.02611491328581, 48.937974341536687 ], [ 2.026181326749032, 48.938206567914172 ], [ 2.026183404035784, 48.938208193430363 ] ] ] ] } },
{ "type": "Feature", "properties": { "id": 24, "CLE_PRIMAI": "24", "id-lot": "L5" }, "geometry": { "type": "MultiPolygon", "coordinates": [ [ [ [ 2.026044779508539, 48.937849618280268 ], [ 2.026244707087361, 48.9378250035858 ], [ 2.026204422168551, 48.937686731566828 ], [ 2.026027379521486, 48.937593012369469 ], [ 2.025919947273656, 48.937676095756373 ], [ 2.025910249262961, 48.937671639596054 ], [ 2.025861068197472, 48.937710611463906 ], [ 2.025976819346347, 48.937773416824832 ], [ 2.02598456450034, 48.937767351677074 ], [ 2.026028324081491, 48.937791436862916 ], [ 2.026044779508539, 48.937849618280268 ] ] ] ] } },
{ "type": "Feature", "properties": { "id": 23, "CLE_PRIMAI": "23", "id-lot": "L5" }, "geometry": { "type": "MultiPolygon", "coordinates": [ [ [ [ 2.025070319217778, 48.938376060143028 ], [ 2.025358103009722, 48.938540039165304 ], [ 2.025508052703437, 48.938621475306419 ], [ 2.025508052703437, 48.938621475306419 ], [ 2.025684791682758, 48.938474154612877 ], [ 2.025537430408094, 48.938394060094247 ], [ 2.025461443275887, 48.938454427229331 ], [ 2.025319960917527, 48.938377984409399 ], [ 2.025357829770925, 48.93834836012725 ], [ 2.025207795371134, 48.938266869319776 ], [ 2.025070319217778, 48.938376060143028 ] ] ] ] } },
{ "type": "Feature", "properties": { "id": 26, "CLE_PRIMAI": "26", "id-lot": "L5" }, "geometry": { "type": "MultiPolygon", "coordinates": [ [ [ [ 2.024998705009562, 48.938337519435784 ], [ 2.025305155055377, 48.938095592927411 ], [ 2.02528419877633, 48.938084302513211 ], [ 2.02533011554354, 48.938048036265094 ], [ 2.02537542882629, 48.938072560422178 ], [ 2.025596852263242, 48.938046476171834 ], [ 2.025556316873254, 48.937909550233918 ], [ 2.02552931652962, 48.937912997939279 ], [ 2.025522977703027, 48.937893575207625 ], [ 2.025555280736001, 48.937868800252417 ], [ 2.025575642132319, 48.937880105265336 ], [ 2.025620811319662, 48.937843859238249 ], [ 2.02559995365586, 48.937832458216789 ], [ 2.025645008330861, 48.937796894849079 ], [ 2.02566588507585, 48.937807910893966 ], [ 2.025711006554339, 48.937772247625617 ], [ 2.025690362032103, 48.937760955196723 ], [ 2.025734218993939, 48.937725761255514 ], [ 2.025755684264892, 48.937737125447342 ], [ 2.02580078823931, 48.93770097726027 ], [ 2.025779750840205, 48.937689709061281 ], [ 2.025822907949301, 48.937655131827526 ], [ 2.025843450670091, 48.937666211908606 ], [ 2.025891236408933, 48.937626274336438 ], [ 2.025871875196628, 48.93761535406442 ], [ 2.025945414025861, 48.937553179823432 ], [ 2.02585897878601, 48.937507520864287 ], [ 2.02585897878601, 48.937507520864287 ], [ 2.025794478359544, 48.937511541964206 ], [ 2.025560189882783, 48.93769025755018 ], [ 2.02585897878601, 48.937507520864287 ], [ 2.02585897878601, 48.937507520864287 ], [ 2.02582827089888, 48.937510410604816 ], [ 2.025793489288619, 48.937512328210993 ], [ 2.025793489288619, 48.937512328210993 ], [ 2.025748320175233, 48.937548200962688 ], [ 2.025763006156482, 48.937556211156163 ], [ 2.025715228414216, 48.937593924624068 ], [ 2.025701530088556, 48.937586713738902 ], [ 2.025655438346286, 48.937622368418673 ], [ 2.025560189882783, 48.93769025755018 ], [ 2.025566654793869, 48.937693572999493 ], [ 2.025566654793869, 48.937693572999493 ], [ 2.025521533383189, 48.937729382953663 ], [ 2.025430464026098, 48.937801652831958 ], [ 2.025455361835387, 48.937815073790048 ], [ 2.025365335198068, 48.937886309083758 ], [ 2.025339829780441, 48.937872848389802 ], [ 2.025248873203107, 48.93794586922106 ], [ 2.025283924317297, 48.937965046994123 ], [ 2.025195817185191, 48.938036817424695 ], [ 2.025157297814697, 48.938015632644515 ], [ 2.024977433291351, 48.938159080658288 ], [ 2.024995464355545, 48.938167434389811 ], [ 2.024977433291351, 48.938159080658288 ], [ 2.024868905287841, 48.938243955681898 ], [ 2.024870644415541, 48.938267820633072 ], [ 2.024998705009562, 48.938337519435784 ] ] ] ] } },
{ "type": "Feature", "properties": { "id": null, "CLE_PRIMAI": null, "id-lot": null }, "geometry": { "type": "MultiPolygon", "coordinates": [ [ [ [ 2.025126395379042, 48.937245048127544 ], [ 2.025180425772203, 48.937274500102319 ], [ 2.025102392701633, 48.937336267373986 ], [ 2.025307170406506, 48.937447891433372 ], [ 2.025371736482259, 48.937396781483613 ], [ 2.0253879457993, 48.937405617159506 ], [ 2.025358533145671, 48.937428899965205 ], [ 2.025434392747345, 48.937470250887507 ], [ 2.02547725459283, 48.937436321840629 ], [ 2.025498867015511, 48.937448102732176 ], [ 2.025567735670507, 48.937393586896086 ], [ 2.025319408946018, 48.937258224143534 ], [ 2.02533296472859, 48.937248215590174 ], [ 2.025272529279209, 48.937215887916786 ], [ 2.025259989769441, 48.937225814124837 ], [ 2.02519526403139, 48.937190532071789 ], [ 2.025126395379042, 48.937245048127544 ] ] ] ] } },
{ "type": "Feature", "properties": { "id": null, "CLE_PRIMAI": null, "id-lot": "L5" }, "geometry": { "type": "MultiPolygon", "coordinates": [ [ [ [ 2.025334935421601, 48.937597717612299 ], [ 2.02539313301965, 48.937551649035257 ], [ 2.025260756689931, 48.937479491194743 ], [ 2.025202559332723, 48.937525559824316 ], [ 2.025235302611129, 48.93754340809167 ], [ 2.025219699557195, 48.937555759303358 ], [ 2.025186956278485, 48.937537911040657 ], [ 2.025080335409342, 48.937622310936071 ], [ 2.025113071493846, 48.937640155247117 ], [ 2.025097468442204, 48.937652506433039 ], [ 2.025064732357659, 48.937634662126463 ], [ 2.024958111488517, 48.937719061858282 ], [ 2.024990840378856, 48.937736902213238 ], [ 2.024975237322418, 48.937749253379025 ], [ 2.024942508432026, 48.93773141302853 ], [ 2.024893009088234, 48.937770596024968 ], [ 2.024835887562881, 48.937815812596767 ], [ 2.024868630867021, 48.937833660775119 ], [ 2.024853027813614, 48.937846011914566 ], [ 2.024820283508576, 48.937828164533222 ], [ 2.024767915638166, 48.937869618134414 ], [ 2.024900291727047, 48.937941775425024 ], [ 2.02495266059777, 48.937900321091632 ], [ 2.024907058873757, 48.937875463898337 ], [ 2.024922661927163, 48.937863112766166 ], [ 2.024968263651759, 48.937887969965189 ], [ 2.025074884520903, 48.937803570518952 ], [ 2.025029268408441, 48.937778705434567 ], [ 2.025044871465303, 48.937766354275716 ], [ 2.025090487577392, 48.937791219366545 ], [ 2.025197108446539, 48.937706819756741 ], [ 2.025151499528226, 48.937681958545667 ], [ 2.025167102580294, 48.937669607366693 ], [ 2.02521271149822, 48.937694468584198 ], [ 2.025319332367366, 48.937610068810798 ], [ 2.025273730643218, 48.937585211473049 ], [ 2.025289333697576, 48.937572860268318 ], [ 2.025334935421601, 48.937597717612299 ] ] ] ] } },
{ "type": "Feature", "properties": { "id": 25, "CLE_PRIMAI": "25", "id-lot": "L5" }, "geometry": { "type": "MultiPolygon", "coordinates": [ [ [ [ 2.025596852263242, 48.938046476171834 ], [ 2.025556316873254, 48.937909550233918 ], [ 2.025334833119575, 48.937936873076033 ], [ 2.025374693976587, 48.938072928924228 ], [ 2.025596852263242, 48.938046476171834 ] ] ] ] } },
{ "type": "Feature", "properties": { "id": null, "CLE_PRIMAI": null, "id-lot": null }, "geometry": { "type": "MultiPolygon", "coordinates": [ [ [ [ 2.024720946553269, 48.938083741841481 ], [ 2.024800934622795, 48.938020424772283 ], [ 2.024755332890317, 48.937995567646276 ], [ 2.024770935958197, 48.937983216532366 ], [ 2.024816537679724, 48.93800807367397 ], [ 2.02486890655041, 48.937966619395567 ], [ 2.024736530461815, 48.937894462141024 ], [ 2.024684161590848, 48.937935916479169 ], [ 2.024716148466043, 48.937953352289597 ], [ 2.024700545398161, 48.937965703410882 ], [ 2.024668557352897, 48.937948268457774 ], [ 2.024588570464394, 48.938011584756076 ], [ 2.024720946553269, 48.938083741841481 ] ] ] ] } },
{ "type": "Feature", "properties": { "id": null, "CLE_PRIMAI": null, "id-lot": null }, "geometry": { "type": "MultiPolygon", "coordinates": [ [ [ [ 2.02450421273879, 48.938241698262694 ], [ 2.024673896920931, 48.938106282359875 ], [ 2.024570911513845, 48.938050147927925 ], [ 2.024540604096899, 48.938074139412137 ], [ 2.024526556023387, 48.938066481928011 ], [ 2.024556862579374, 48.938042491829222 ], [ 2.024441776435356, 48.937979759285248 ], [ 2.024407715065588, 48.93800672174801 ], [ 2.024423562287923, 48.938018012146792 ], [ 2.024320874427138, 48.938095685218244 ], [ 2.024336003123016, 48.938103931733671 ], [ 2.024301568797264, 48.938131189269427 ], [ 2.02450421273879, 48.938241698262694 ] ] ] ] } },
{ "type": "Feature", "properties": { "id": null, "CLE_PRIMAI": null, "id-lot": null }, "geometry": { "type": "MultiPolygon", "coordinates": [ [ [ [ 2.02413452927763, 48.938493465823754 ], [ 2.024177887639446, 48.938476649759963 ], [ 2.024161828185974, 48.938458783367089 ], [ 2.024269150541524, 48.938417161634057 ], [ 2.024249524778067, 48.938395326536302 ], [ 2.024325208775405, 48.93836597326888 ], [ 2.024309171940925, 48.938348131097932 ], [ 2.024404912685871, 48.938310998987234 ], [ 2.024354015352032, 48.938254289332576 ], [ 2.024244492499251, 48.938193876330239 ], [ 2.023975920143939, 48.938407064247677 ], [ 2.02413452927763, 48.938493465823754 ] ] ] ] } },
{ "type": "Feature", "properties": { "id": null, "CLE_PRIMAI": null, "id-lot": null }, "geometry": { "type": "MultiPolygon", "coordinates": [ [ [ [ 2.023601712003662, 48.938921116645716 ], [ 2.023647612349624, 48.938903167435527 ], [ 2.023631906707397, 48.938885694777532 ], [ 2.023709575310171, 48.93885557215723 ], [ 2.02369233648764, 48.938836393804749 ], [ 2.023768010889786, 48.938807044649906 ], [ 2.023751968903703, 48.938789197770966 ], [ 2.023827647954475, 48.938759846476039 ], [ 2.023811608541856, 48.938742002444393 ], [ 2.02388183781604, 48.938714764980155 ], [ 2.023858199486825, 48.938688432724383 ], [ 2.023949127321264, 48.938653169275504 ], [ 2.023933190407647, 48.93863543837768 ], [ 2.02400886137218, 48.938606090307921 ], [ 2.023992802279534, 48.938588224361688 ], [ 2.024089365524085, 48.938550773431665 ], [ 2.024043571390037, 48.938499827325927 ], [ 2.023934109990358, 48.938440167567485 ], [ 2.023437691486559, 48.938832387204556 ], [ 2.023601712003662, 48.938921116645716 ] ] ] ] } },
{ "type": "Feature", "properties": { "id": null, "CLE_PRIMAI": null, "id-lot": null }, "geometry": { "type": "MultiPolygon", "coordinates": [ [ [ [ 2.023327868163598, 48.939176380193317 ], [ 2.02337729958057, 48.939136922135184 ], [ 2.023352794197153, 48.939123676428935 ], [ 2.023375636132252, 48.939105443102456 ], [ 2.023400141565139, 48.93911868880167 ], [ 2.023509354675841, 48.939031510526341 ], [ 2.023484849286184, 48.939018264797113 ], [ 2.023507691221281, 48.939000031432144 ], [ 2.023532179708473, 48.939013267996366 ], [ 2.023581628053637, 48.93897381895858 ], [ 2.023449992909757, 48.938902666998999 ], [ 2.023196233005282, 48.939105228530671 ], [ 2.023327868163598, 48.939176380193317 ] ] ] ] } },
{ "type": "Feature", "properties": { "id": null, "CLE_PRIMAI": null, "id-lot": null }, "geometry": { "type": "MultiPolygon", "coordinates": [ [ [ [ 2.022941960216545, 48.939552612408349 ], [ 2.023009239115686, 48.939499360676699 ], [ 2.02295802470179, 48.93947160249072 ], [ 2.023008259129111, 48.939431503663904 ], [ 2.022994491029027, 48.939424061747829 ], [ 2.023023841246869, 48.939400629829628 ], [ 2.023037614661701, 48.939408071073181 ], [ 2.023093200761103, 48.939363697700948 ], [ 2.023068697323073, 48.939350453114791 ], [ 2.023091539258172, 48.939332219871169 ], [ 2.023116042721343, 48.939345464442106 ], [ 2.023169838454859, 48.939302528287982 ], [ 2.023225257816004, 48.939258287647192 ], [ 2.023200752405689, 48.93924504196702 ], [ 2.023223594340787, 48.939226808684886 ], [ 2.023248097783326, 48.939240053272634 ], [ 2.023305176573203, 48.939194636100858 ], [ 2.023173033404248, 48.939123748919627 ], [ 2.022906068741055, 48.93933684850726 ], [ 2.022949996897021, 48.939360605374553 ], [ 2.022920552138692, 48.939384109211517 ], [ 2.022777614987203, 48.939306840787268 ], [ 2.022660371519236, 48.93940042866322 ], [ 2.022786788033253, 48.939468784134831 ], [ 2.022891015681793, 48.939525091317236 ], [ 2.022941960216545, 48.939552612408349 ] ] ] ] } },
{ "type": "Feature", "properties": { "id": null, "CLE_PRIMAI": null, "id-lot": null }, "geometry": { "type": "MultiPolygon", "coordinates": [ [ [ [ 2.023263125391293, 48.939991767405459 ], [ 2.023362899368021, 48.939912621969569 ], [ 2.023039162804822, 48.939734800540322 ], [ 2.023039162804822, 48.939734800540322 ], [ 2.022976046332065, 48.939742291888848 ], [ 2.022571754574556, 48.940062315154655 ], [ 2.022579329647459, 48.940115035091452 ], [ 2.023016862132884, 48.940351982368398 ], [ 2.023128987281881, 48.94026303993401 ], [ 2.023114388857459, 48.940255096233614 ], [ 2.023136151688829, 48.940237833009569 ], [ 2.022864676466881, 48.940090176950534 ], [ 2.023100247780296, 48.939903177354523 ], [ 2.023263125391293, 48.939991767405459 ] ] ] ] } },
{ "type": "Feature", "properties": { "id": 48, "CLE_PRIMAI": "48", "id-lot": "L10" }, "geometry": { "type": "MultiPolygon", "coordinates": [ [ [ [ 2.024064419806147, 48.94010670023156 ], [ 2.024145739128498, 48.940037341474003 ], [ 2.024077660489927, 48.940000233191029 ], [ 2.02399260236331, 48.940067559318337 ], [ 2.024064419806147, 48.940106705507127 ], [ 2.024064419806147, 48.94010670023156 ] ] ] ] } },
{ "type": "Feature", "properties": { "id": 49, "CLE_PRIMAI": "49", "id-lot": "l10" }, "geometry": { "type": "MultiPolygon", "coordinates": [ [ [ [ 2.023855639868588, 48.940046516797338 ], [ 2.023940700167539, 48.939979191825778 ], [ 2.023800220685765, 48.939902619179165 ], [ 2.023715162738737, 48.939969945295985 ], [ 2.023855639868588, 48.940046516797338 ] ] ] ] } },
{ "type": "Feature", "properties": { "id": 50, "CLE_PRIMAI": "50", "id-lot": "l10" }, "geometry": { "type": "MultiPolygon", "coordinates": [ [ [ [ 2.023629362102758, 48.939923176646289 ], [ 2.023714420229323, 48.939855850324207 ], [ 2.023644180549379, 48.939817563714236 ], [ 2.023559122422808, 48.939884890087946 ], [ 2.023629362102758, 48.939923176646289 ] ] ] ] } },
{ "type": "Feature", "properties": { "id": 56, "CLE_PRIMAI": "56", "id-lot": "L10" }, "geometry": { "type": "MultiPolygon", "coordinates": [ [ [ [ 2.023467466683989, 48.93983719633114 ], [ 2.023593421231455, 48.939737498934655 ], [ 2.023643087700419, 48.939698186145577 ], [ 2.02353740399743, 48.939640579330081 ], [ 2.02349087611886, 48.93967740785591 ], [ 2.023473768980478, 48.939668083106234 ], [ 2.023391246298256, 48.939733401625254 ], [ 2.023408354305897, 48.939742726836535 ], [ 2.023361782981001, 48.939779589676085 ], [ 2.023467466683989, 48.93983719633114 ] ] ] ] } },
{ "type": "Feature", "properties": { "id": 57, "CLE_PRIMAI": "57", "id-lot": "L10" }, "geometry": { "type": "MultiPolygon", "coordinates": [ [ [ [ 2.023680715624026, 48.939668402275686 ], [ 2.023856314917306, 48.939529408814636 ], [ 2.023750631214317, 48.939471801804338 ], [ 2.023704081612584, 48.939508647649347 ], [ 2.023687045665216, 48.939499361544684 ], [ 2.023604544706503, 48.939564663090046 ], [ 2.02362472011314, 48.939571465342311 ], [ 2.023575031921034, 48.939610795425814 ], [ 2.023680715624018, 48.939668402275686 ], [ 2.023680715624026, 48.939668402275686 ] ] ] ] } },
{ "type": "Feature", "properties": { "id": 55, "CLE_PRIMAI": "55", "id-lot": "L10" }, "geometry": { "type": "MultiPolygon", "coordinates": [ [ [ [ 2.02322706629444, 48.939706125957485 ], [ 2.023287148039703, 48.939658569159427 ], [ 2.023230298311482, 48.939627581216079 ], [ 2.023253611704083, 48.939609127794078 ], [ 2.023275324336995, 48.939620951400407 ], [ 2.023332265437814, 48.939575880371862 ], [ 2.023367392406449, 48.939595036805876 ], [ 2.023409810113527, 48.939561461644267 ], [ 2.0233529723581, 48.939530480044496 ], [ 2.023376287600826, 48.93951202512212 ], [ 2.023397978428508, 48.939523868410085 ], [ 2.023458060159012, 48.939476311383217 ], [ 2.023490066452999, 48.939497935570998 ], [ 2.023532480205106, 48.939464363391401 ], [ 2.023475642608127, 48.939433381689149 ], [ 2.023498965636125, 48.939414920568538 ], [ 2.023520656620853, 48.93942676375741 ], [ 2.023580744632654, 48.939379201655044 ], [ 2.023494312263403, 48.939332082447812 ], [ 2.023434228826093, 48.939379640985273 ], [ 2.023454203391334, 48.939390551223127 ], [ 2.023391584854938, 48.939440116404619 ], [ 2.023371636350229, 48.939429185460853 ], [ 2.023311554779507, 48.939476742450275 ], [ 2.023331547881581, 48.939487637998717 ], [ 2.023268957821683, 48.939537183684031 ], [ 2.023248964153631, 48.939526285364906 ], [ 2.023188880785681, 48.939573843755134 ], [ 2.023208852685675, 48.939584756027557 ], [ 2.023140458257976, 48.93963889278168 ], [ 2.023140389453521, 48.939658872971165 ], [ 2.023140389453521, 48.939658872971165 ], [ 2.02322706629444, 48.939706125957485 ] ] ] ] } },
{ "type": "Feature", "properties": { "id": 51, "CLE_PRIMAI": "51", "id-lot": "L10" }, "geometry": { "type": "MultiPolygon", "coordinates": [ [ [ [ 2.024282547138621, 48.939920745648983 ], [ 2.024365754624774, 48.939849836426227 ], [ 2.024294823725465, 48.939811173038002 ], [ 2.024207839915968, 48.939880023662361 ], [ 2.024282547138621, 48.939920745648983 ] ] ] ] } },
{ "type": "Feature", "properties": { "id": 52, "CLE_PRIMAI": "52", "id-lot": "L10" }, "geometry": { "type": "MultiPolygon", "coordinates": [ [ [ [ 2.024166675784367, 48.939857674234297 ], [ 2.024253656778691, 48.939788807464794 ], [ 2.024181648273964, 48.939749556641495 ], [ 2.024094667329063, 48.939818405083443 ], [ 2.024166675784367, 48.939857674234297 ] ] ] ] } },
{ "type": "Feature", "properties": { "id": 53, "CLE_PRIMAI": "53", "id-lot": "L10" }, "geometry": { "type": "MultiPolygon", "coordinates": [ [ [ [ 2.024053543430077, 48.939795989041485 ], [ 2.024140524374977, 48.939727140568635 ], [ 2.024068515870246, 48.939687889696849 ], [ 2.023981534925341, 48.939756738223835 ], [ 2.024053543430077, 48.939795989041485 ] ] ] ] } },
{ "type": "Feature", "properties": { "id": 54, "CLE_PRIMAI": "54", "id-lot": "L10" }, "geometry": { "type": "MultiPolygon", "coordinates": [ [ [ [ 2.023940401855673, 48.939734317155384 ], [ 2.024027382800582, 48.939665468597454 ], [ 2.023955374295847, 48.939626217677166 ], [ 2.023868393350951, 48.939695066289232 ], [ 2.023940401855673, 48.939734317155384 ] ] ] ] } },
{ "type": "Feature", "properties": { "id": 58, "CLE_PRIMAI": "58", "id-lot": null }, "geometry": { "type": "MultiPolygon", "coordinates": [ [ [ [ 2.024465707032969, 48.939763877472039 ], [ 2.024553143896273, 48.939690095612946 ], [ 2.024699156306674, 48.939565663540655 ], [ 2.024689563667277, 48.939509476673358 ], [ 2.024534810078559, 48.939425754791415 ], [ 2.024408380569831, 48.939525828761028 ], [ 2.024463229815257, 48.939555748908212 ], [ 2.024435019564437, 48.939578106667554 ], [ 2.02441137068056, 48.939565214755639 ], [ 2.024288385030337, 48.939665423401514 ], [ 2.024465707032969, 48.939763877472039 ] ] ] ] } },
{ "type": "Feature", "properties": { "id": 59, "CLE_PRIMAI": "59", "id-lot": "L10" }, "geometry": { "type": "MultiPolygon", "coordinates": [ [ [ [ 2.024104967220079, 48.93956724286479 ], [ 2.024385906805805, 48.93934525456622 ], [ 2.024173740612104, 48.93923010625744 ], [ 2.024048528442071, 48.939330358409734 ], [ 2.024114235763481, 48.939365493524313 ], [ 2.023960057357394, 48.939488254154384 ], [ 2.024104967220079, 48.93956724286479 ] ] ] ] } },
{ "type": "Feature", "properties": { "id": 60, "CLE_PRIMAI": "60", "id-lot": "L10" }, "geometry": { "type": "MultiPolygon", "coordinates": [ [ [ [ 2.023638751174092, 48.939262550342519 ], [ 2.023706937768661, 48.939299718254482 ], [ 2.023724872566849, 48.939285522098423 ], [ 2.023780415957376, 48.939315798303703 ], [ 2.023982630900032, 48.939155736449955 ], [ 2.024003190213896, 48.939138797836705 ], [ 2.024003190213896, 48.939138797836705 ], [ 2.023877178101966, 48.939070093371036 ], [ 2.023820798168577, 48.939073609151485 ], [ 2.023820798168577, 48.939073609151485 ], [ 2.023629912673368, 48.939224770658207 ], [ 2.023663415924268, 48.939243027127475 ], [ 2.023638751174092, 48.939262550342519 ] ] ] ] } },
{ "type": "Feature", "properties": { "id": 61, "CLE_PRIMAI": "61", "id-lot": "L11" }, "geometry": { "type": "MultiPolygon", "coordinates": [ [ [ [ 2.025027792004721, 48.939259335461593 ], [ 2.025056888444022, 48.939217697855149 ], [ 2.024984379968654, 48.939178523499372 ], [ 2.02503952263752, 48.939134486259228 ], [ 2.024858533589371, 48.939039616404067 ], [ 2.02481557755788, 48.939074947256074 ], [ 2.02489925190777, 48.939120827910472 ], [ 2.024848303818683, 48.939160918002429 ], [ 2.025027792004721, 48.939259335461593 ] ] ] ] } },
{ "type": "Feature", "properties": { "id": 62, "CLE_PRIMAI": "62", "id-lot": "L11" }, "geometry": { "type": "MultiPolygon", "coordinates": [ [ [ [ 2.025106595437464, 48.939146566039106 ], [ 2.025135691876763, 48.939104928338622 ], [ 2.025063183401396, 48.93906575389434 ], [ 2.025118326070261, 48.939021716554677 ], [ 2.024937337022112, 48.938926846485181 ], [ 2.024894380990623, 48.938962177417018 ], [ 2.02497805534051, 48.939008058175069 ], [ 2.024927107251424, 48.939048148357593 ], [ 2.025106595437464, 48.939146566039106 ] ] ] ] } },
{ "type": "Feature", "properties": { "id": 63, "CLE_PRIMAI": "63", "id-lot": "L11" }, "geometry": { "type": "MultiPolygon", "coordinates": [ [ [ [ 2.025186038491753, 48.939032881046444 ], [ 2.02521513493105, 48.938991243251088 ], [ 2.025142626455683, 48.938952068717583 ], [ 2.025197769124549, 48.938908031277641 ], [ 2.025016780076399, 48.938813160992069 ], [ 2.024973824044909, 48.938848492004368 ], [ 2.025057498394799, 48.938894372866905 ], [ 2.025006550305712, 48.938934463140761 ], [ 2.025186038491753, 48.939032881046444 ] ] ] ] } },
{ "type": "Feature", "properties": { "id": 65, "CLE_PRIMAI": "65", "id-lot": "L11" }, "geometry": { "type": "MultiPolygon", "coordinates": [ [ [ [ 2.025282050489654, 48.93883115585998 ], [ 2.025389820210182, 48.938741361475344 ], [ 2.024960790699835, 48.938509294440898 ], [ 2.024874315368201, 48.938578274232142 ], [ 2.024879649402636, 48.938614764689802 ], [ 2.025282050489654, 48.93883115585998 ] ] ] ] } },
{ "type": "Feature", "properties": { "id": 67, "CLE_PRIMAI": "67", "id-lot": "L11" }, "geometry": { "type": "MultiPolygon", "coordinates": [ [ [ [ 2.024574695414966, 48.93870752369417 ], [ 2.024859576859031, 48.938481021482332 ], [ 2.024856587538563, 48.938453344785955 ], [ 2.02473001006194, 48.938384461993927 ], [ 2.024688421327741, 48.938388320650319 ], [ 2.024402308750846, 48.938614259749272 ], [ 2.024574695414966, 48.93870752369417 ] ] ] ] } },
{ "type": "Feature", "properties": { "id": 66, "CLE_PRIMAI": "66", "id-lot": "L11" }, "geometry": { "type": "MultiPolygon", "coordinates": [ [ [ [ 2.024138517906229, 48.939056129601575 ], [ 2.02449520577545, 48.938771933754488 ], [ 2.024321444409663, 48.938678029378785 ], [ 2.02398835725218, 48.938940973826917 ], [ 2.02398835725218, 48.938940973826917 ], [ 2.023993848211014, 48.938977868182128 ], [ 2.024138517906229, 48.939056129601575 ] ] ] ] } },
{ "type": "Feature", "properties": { "id": 64, "CLE_PRIMAI": "64", "id-lot": "L11" }, "geometry": { "type": "MultiPolygon", "coordinates": [ [ [ [ 2.024220452946605, 48.939099851739805 ], [ 2.024878060860864, 48.939456151707354 ], [ 2.024966588238644, 48.939344395057589 ], [ 2.024966588238644, 48.939344395057589 ], [ 2.024866994700413, 48.939291202120295 ], [ 2.024816618226657, 48.939331288729825 ], [ 2.024787956001614, 48.939315747645928 ], [ 2.024838332475369, 48.939275661023935 ], [ 2.024720857925919, 48.939211964477693 ], [ 2.024671640673104, 48.939252869776404 ], [ 2.024642978194955, 48.939237328530858 ], [ 2.024693029462592, 48.939196875435783 ], [ 2.024577060299304, 48.939133705064783 ], [ 2.024525883732316, 48.939174029125027 ], [ 2.024497221254165, 48.939158487854932 ], [ 2.024547981343437, 48.93911822793094 ], [ 2.024431587715937, 48.939055018036015 ], [ 2.024379538937482, 48.939094870375214 ], [ 2.024350876459332, 48.939079329080464 ], [ 2.024401642301812, 48.939038880340867 ], [ 2.024338629653979, 48.93900502127287 ], [ 2.024220452946605, 48.939099851739805 ] ] ] ] } },
{ "type": "Feature", "properties": { "id": null, "CLE_PRIMAI": null, "id-lot": null }, "geometry": { "type": "MultiPolygon", "coordinates": [ [ [ [ 2.032060528312541, 48.941269687573424 ], [ 2.03221947112471, 48.941287003508116 ], [ 2.03221947112471, 48.941287003508116 ], [ 2.032278118137095, 48.94124055570812 ], [ 2.03225651399713, 48.941229490368997 ], [ 2.03230010708498, 48.941194761889385 ], [ 2.032321017770098, 48.941206086159411 ], [ 2.032436432256772, 48.941114140990528 ], [ 2.032420180438431, 48.941105339728828 ], [ 2.032440728127226, 48.941088970345099 ], [ 2.032456980734282, 48.941097770989337 ], [ 2.032651181812483, 48.940943059900405 ], [ 2.032634929984671, 48.94093425860811 ], [ 2.032655118586829, 48.940918175244683 ], [ 2.03267235298809, 48.940926379991119 ], [ 2.03267235298809, 48.940926379991119 ], [ 2.032839312181121, 48.940793184749495 ], [ 2.032502545606049, 48.940579091485503 ], [ 2.032392253156609, 48.940662874279326 ], [ 2.032581332963642, 48.940765272246935 ], [ 2.032604747871064, 48.940778597361785 ], [ 2.032604747871064, 48.940778597361785 ], [ 2.032140597933212, 48.941132222965393 ], [ 2.031982653880029, 48.941047708270794 ], [ 2.031994052008753, 48.941038627908711 ], [ 2.031942533724995, 48.941005256867513 ], [ 2.031814124639771, 48.941103699052427 ], [ 2.031814124639771, 48.941103699052427 ], [ 2.032060019018972, 48.941269299438837 ], [ 2.032060528312541, 48.941269687573424 ] ] ] ] } },
{ "type": "Feature", "properties": { "id": null, "CLE_PRIMAI": null, "id-lot": null }, "geometry": { "type": "MultiPolygon", "coordinates": [ [ [ [ 2.032917308887507, 48.940731047571603 ], [ 2.033572117948161, 48.940208076175495 ], [ 2.033459212413026, 48.940150277080086 ], [ 2.033407258702508, 48.940192353609994 ], [ 2.033370435111611, 48.94017239297014 ], [ 2.033236904082606, 48.940278675384 ], [ 2.033272380199766, 48.940297905569821 ], [ 2.033160257198233, 48.940387210711819 ], [ 2.033124734444943, 48.940367955280841 ], [ 2.032991203401795, 48.940474237289529 ], [ 2.033027681634545, 48.940494247179402 ], [ 2.032917007000877, 48.940582424601068 ], [ 2.032852269227873, 48.940547367989353 ], [ 2.032756599602333, 48.940623590448737 ], [ 2.032917308887507, 48.940731047571603 ] ] ] ] } },
{ "type": "Feature", "properties": { "id": null, "CLE_PRIMAI": null, "id-lot": null }, "geometry": { "type": "MultiPolygon", "coordinates": [ [ [ [ 2.032623312658146, 48.940534222629275 ], [ 2.033136569200279, 48.940125295794239 ], [ 2.033272843188073, 48.940198812916783 ], [ 2.033383610745533, 48.940110648688815 ], [ 2.033133167045368, 48.939982646509584 ], [ 2.033133167045368, 48.939982646509584 ], [ 2.033043714537127, 48.939990021075289 ], [ 2.032498706933544, 48.940450580032362 ], [ 2.032623312658146, 48.940534222629275 ] ] ] ] } },
{ "type": "Feature", "properties": { "id": null, "CLE_PRIMAI": null, "id-lot": null }, "geometry": { "type": "MultiPolygon", "coordinates": [ [ [ [ 2.032358693211112, 48.940195053593293 ], [ 2.032158680053483, 48.94009132724301 ], [ 2.032283992421252, 48.939985445543222 ], [ 2.032322674248383, 48.940005201781005 ], [ 2.032387924667117, 48.939950080746719 ], [ 2.032340134408528, 48.939925672468476 ], [ 2.032403660906029, 48.939872007651523 ], [ 2.032257852814753, 48.939797537834473 ], [ 2.031945202697082, 48.940149677490453 ], [ 2.032335331622674, 48.94035146009881 ], [ 2.032441268437109, 48.940342963731361 ], [ 2.032917246468896, 48.939939672720037 ], [ 2.032917246468896, 48.939939672720037 ], [ 2.032903018293758, 48.939870698822013 ], [ 2.032407340210688, 48.939629783813892 ], [ 2.032304626696766, 48.939745113716768 ], [ 2.032662978592483, 48.939919815157559 ], [ 2.032635714084685, 48.93994283282742 ], [ 2.032649112088535, 48.939949687864051 ], [ 2.032358693211112, 48.940195053593293 ] ] ] ] } },
{ "type": "Feature", "properties": { "id": null, "CLE_PRIMAI": null, "id-lot": null }, "geometry": { "type": "MultiPolygon", "coordinates": [ [ [ [ 2.03279946224698, 48.939689012535624 ], [ 2.032837621019433, 48.939539966886819 ], [ 2.032604995158937, 48.939409996940789 ], [ 2.032475417226826, 48.939532706014418 ], [ 2.03279946224698, 48.939689012535624 ] ] ] ] } },
{ "type": "Feature", "properties": { "id": null, "CLE_PRIMAI": null, "id-lot": null }, "geometry": { "type": "MultiPolygon", "coordinates": [ [ [ [ 2.03258749588109, 48.939357180265553 ], [ 2.032671442315168, 48.939377029964874 ], [ 2.032690243462722, 48.939342790097072 ], [ 2.032736217685812, 48.939353787811747 ], [ 2.032755020663964, 48.939319835981706 ], [ 2.032708790048708, 48.939308924220519 ], [ 2.032727515812982, 48.939274731142937 ], [ 2.032773759654552, 48.939285587666127 ], [ 2.032792285745162, 48.939251719375989 ], [ 2.032743435445401, 48.939240348037053 ], [ 2.032762143164635, 48.939206147278171 ], [ 2.03281099528681, 48.939217514930483 ], [ 2.032829254223809, 48.939183742732972 ], [ 2.032783028803514, 48.93917283308555 ], [ 2.0328028874395, 48.939136903027126 ], [ 2.032721243228379, 48.939117633956101 ], [ 2.032701566337488, 48.939153553823054 ], [ 2.032661076082873, 48.939143911322446 ], [ 2.032642481107638, 48.939177743150886 ], [ 2.032683091558669, 48.939187327668591 ], [ 2.032664363432914, 48.939221525118086 ], [ 2.032623812348608, 48.939211954767138 ], [ 2.032605285032677, 48.939245825265054 ], [ 2.032645785386189, 48.939255542750672 ], [ 2.032627101107741, 48.939289644474542 ], [ 2.032586512052681, 48.939280064880414 ], [ 2.032567984714996, 48.939313935326844 ], [ 2.032606198381712, 48.939322987714363 ], [ 2.03258749588109, 48.939357180265553 ] ] ] ] } },
{ "type": "Feature", "properties": { "id": null, "CLE_PRIMAI": null, "id-lot": null }, "geometry": { "type": "MultiPolygon", "coordinates": [ [ [ [ 2.032372228594244, 48.939484112109177 ], [ 2.032453080474028, 48.939336239202099 ], [ 2.03207457776652, 48.939165392049389 ], [ 2.032197420570356, 48.938982489634725 ], [ 2.032598003150632, 48.939043817393255 ], [ 2.032689925420816, 48.938902958982325 ], [ 2.03214218835938, 48.938819022693927 ], [ 2.03214218835938, 48.938819022693927 ], [ 2.032064375178811, 48.938844541517199 ], [ 2.031823704818984, 48.939202785239132 ], [ 2.031823704818984, 48.939202785239132 ], [ 2.031841753937429, 48.939244600137101 ], [ 2.032372228594244, 48.939484112109177 ] ] ] ] } },
{ "type": "Feature", "properties": { "id": null, "CLE_PRIMAI": null, "id-lot": null }, "geometry": { "type": "MultiPolygon", "coordinates": [ [ [ [ 2.032722558547905, 48.939061102271651 ], [ 2.033071916899889, 48.939099691202259 ], [ 2.033066538082484, 48.939164573563453 ], [ 2.033026540226051, 48.939160155274074 ], [ 2.032985214468046, 48.939310388059049 ], [ 2.033019271802315, 48.939314149986458 ], [ 2.033002970415697, 48.939377822453693 ], [ 2.032968920449934, 48.939374061203985 ], [ 2.032930364600209, 48.939524599185674 ], [ 2.03296220780889, 48.939528210190332 ], [ 2.032948328170381, 48.939582423197756 ], [ 2.032916461673647, 48.939578903157923 ], [ 2.032902197218737, 48.93963461640913 ], [ 2.032877272959263, 48.939631863226282 ], [ 2.032865593905002, 48.939677480805486 ], [ 2.032878509346817, 48.939727141656768 ], [ 2.032984500770776, 48.939778267592779 ], [ 2.033049082751934, 48.939772936027289 ], [ 2.033091270282879, 48.939702091306586 ], [ 2.033091270282879, 48.939702091306586 ], [ 2.033263686075699, 48.939027788607902 ], [ 2.033219309011818, 48.938983998484083 ], [ 2.033219309011818, 48.938983998484083 ], [ 2.032799778636861, 48.938919750219782 ], [ 2.032722558547905, 48.939061102271651 ] ] ] ] } },
{ "type": "Feature", "properties": { "id": null, "CLE_PRIMAI": null, "id-lot": null }, "geometry": { "type": "MultiPolygon", "coordinates": [ [ [ [ 2.033676118343218, 48.940125855636282 ], [ 2.034244449397711, 48.939673384005985 ], [ 2.034184781180707, 48.93959522596073 ], [ 2.034085307197037, 48.939585301850855 ], [ 2.03401855431707, 48.939638345561811 ], [ 2.034001237471842, 48.939628966173792 ], [ 2.033941341384795, 48.939676678436989 ], [ 2.033958675971474, 48.939686061708997 ], [ 2.033812192842389, 48.939802741694294 ], [ 2.033794812368363, 48.939793379720903 ], [ 2.033684055969973, 48.939881627989678 ], [ 2.033701374905861, 48.939891017143324 ], [ 2.033604036287908, 48.939968555096762 ], [ 2.033582462545063, 48.939957761189689 ], [ 2.033596417070611, 48.939945990789759 ], [ 2.03355958256963, 48.939927177666171 ], [ 2.033545671923398, 48.939938916093539 ], [ 2.033367556136187, 48.939847456460704 ], [ 2.033423787767812, 48.939800005506257 ], [ 2.033409839559317, 48.939707459888986 ], [ 2.033494795186797, 48.939598014527974 ], [ 2.033513124891848, 48.939528380752186 ], [ 2.033304378754512, 48.939507616645294 ], [ 2.033247713850985, 48.939728912396539 ], [ 2.033175425168452, 48.939869856594377 ], [ 2.033676136146294, 48.940125853922801 ], [ 2.033676118343218, 48.940125855636282 ] ] ] ] } },
{ "type": "Feature", "properties": { "id": null, "CLE_PRIMAI": null, "id-lot": null }, "geometry": { "type": "MultiPolygon", "coordinates": [ [ [ [ 2.033624733821192, 48.939673840620422 ], [ 2.033712446464098, 48.939718687423564 ], [ 2.033718484252594, 48.939713592416382 ], [ 2.033745099223319, 48.939727200475133 ], [ 2.03385113460612, 48.939637724354895 ], [ 2.033866812043515, 48.939563563602739 ], [ 2.033686829818438, 48.939545656412498 ], [ 2.033679455460357, 48.939580449473013 ], [ 2.033693143170245, 48.939586086415908 ], [ 2.033608610620628, 48.939657413958656 ], [ 2.033630823974458, 48.939668679334893 ], [ 2.033624733821192, 48.939673840620422 ] ] ] ] } },
{ "type": "Feature", "properties": { "id": null, "CLE_PRIMAI": null, "id-lot": null }, "geometry": { "type": "MultiPolygon", "coordinates": [ [ [ [ 2.03372051740187, 48.939474342134965 ], [ 2.03391705511755, 48.939493466617918 ], [ 2.033923118062412, 48.93946718133887 ], [ 2.033964812782305, 48.939471328758309 ], [ 2.033958604639754, 48.939498067342072 ], [ 2.034058658676923, 48.939508008933878 ], [ 2.034082415967835, 48.939404671955486 ], [ 2.034103264858542, 48.939406737325172 ], [ 2.034114996944607, 48.93935584881914 ], [ 2.034031692920713, 48.939347562462352 ], [ 2.034025385365404, 48.939374921791803 ], [ 2.033946203896672, 48.939367046920175 ], [ 2.03394990180313, 48.939350998637785 ], [ 2.033970772595553, 48.939353073592407 ], [ 2.03398250632047, 48.939302185176302 ], [ 2.033899202562778, 48.939293897656036 ], [ 2.03389288901755, 48.93932127910972 ], [ 2.033855962300593, 48.939317583582273 ], [ 2.033845800197117, 48.939361655784325 ], [ 2.033811231573036, 48.93935821722129 ], [ 2.033817523503808, 48.939330925470465 ], [ 2.033734218297977, 48.939322636705356 ], [ 2.033722486199213, 48.93937352524398 ], [ 2.033743269381744, 48.939375592570698 ], [ 2.03372051740187, 48.939474342134965 ] ] ] ] } },
{ "type": "Feature", "properties": { "id": null, "CLE_PRIMAI": null, "id-lot": null }, "geometry": { "type": "MultiPolygon", "coordinates": [ [ [ [ 2.033323045127471, 48.939434841779907 ], [ 2.033550999930807, 48.93945777504107 ], [ 2.033558494635844, 48.939428561928317 ], [ 2.033536245991893, 48.939426129017001 ], [ 2.033570923158941, 48.939290946660691 ], [ 2.033593051692026, 48.939293388009823 ], [ 2.033606492797484, 48.939241084107522 ], [ 2.0335843642644, 48.939238642755818 ], [ 2.033600159570053, 48.939176869253245 ], [ 2.03362232216981, 48.939179325281145 ], [ 2.03363250870029, 48.939140577487414 ], [ 2.034529057680817, 48.93923015159929 ], [ 2.034517975833758, 48.939278614385195 ], [ 2.034291255494815, 48.939406502391414 ], [ 2.034201614345359, 48.939522230768354 ], [ 2.034408493855564, 48.93954280533864 ], [ 2.034853331699554, 48.939188672176641 ], [ 2.034834550048236, 48.939156053561248 ], [ 2.034834550048236, 48.939156053561248 ], [ 2.033430738443956, 48.939016646648291 ], [ 2.033323045127471, 48.939434841779907 ] ] ] ] } },
{ "type": "Feature", "properties": { "id": 71, "CLE_PRIMAI": "71", "id-lot": "B1" }, "geometry": { "type": "MultiPolygon", "coordinates": [ [ [ [ 2.026310251333243, 48.94567491873304 ], [ 2.026505345209377, 48.945659008103597 ], [ 2.026411915086622, 48.945164836402995 ], [ 2.026216821210488, 48.945180747189994 ], [ 2.026310251333243, 48.94567491873304 ] ] ] ] } },
{ "type": "Feature", "properties": { "id": 72, "CLE_PRIMAI": "72", "id-lot": "B1" }, "geometry": { "type": "MultiPolygon", "coordinates": [ [ [ [ 2.025990185342739, 48.945574188643519 ], [ 2.026083478581398, 48.945460536222242 ], [ 2.025695919377651, 48.945323307290018 ], [ 2.02560262613899, 48.945436960023827 ], [ 2.025990185342739, 48.945574188643519 ], [ 2.025990185342739, 48.945574188643519 ], [ 2.025990185342739, 48.945574188643519 ], [ 2.025990185342739, 48.945574188643519 ] ] ] ] } },
{ "type": "Feature", "properties": { "id": 73, "CLE_PRIMAI": "73", "id-lot": "B1" }, "geometry": { "type": "MultiPolygon", "coordinates": [ [ [ [ 2.026038790529288, 48.945137222312596 ], [ 2.026130798164212, 48.945044503383642 ], [ 2.025750226119098, 48.944881597810955 ], [ 2.025655881541331, 48.944973316703937 ], [ 2.026038790529288, 48.945137222312596 ], [ 2.026038790529288, 48.945137222312596 ] ] ] ] } },
{ "type": "Feature", "properties": { "id": 74, "CLE_PRIMAI": "74", "id-lot": "B1" }, "geometry": { "type": "MultiPolygon", "coordinates": [ [ [ [ 2.02544113882699, 48.945379779794656 ], [ 2.025702362666953, 48.945125827677991 ], [ 2.025563118470427, 48.945064043237998 ], [ 2.025345802480005, 48.945274764830401 ], [ 2.025382439613227, 48.94535899526938 ], [ 2.02544113882699, 48.945379779794656 ] ] ] ] } },
{ "type": "Feature", "properties": { "id": 75, "CLE_PRIMAI": "75", "id-lot": "B2" }, "geometry": { "type": "MultiPolygon", "coordinates": [ [ [ [ 2.026433979598943, 48.945086324416529 ], [ 2.026857234301173, 48.945046510799251 ], [ 2.026758039919537, 48.944626696004917 ], [ 2.026563773045785, 48.94464649653132 ], [ 2.026632464987706, 48.944937217828759 ], [ 2.026406107766921, 48.944958510258864 ], [ 2.026433979598943, 48.945086324416529 ] ] ] ] } },
{ "type": "Feature", "properties": { "id": 77, "CLE_PRIMAI": "77", "id-lot": "B2" }, "geometry": { "type": "MultiPolygon", "coordinates": [ [ [ [ 2.02646352635733, 48.944598463331182 ], [ 2.026577988645747, 48.944517241087432 ], [ 2.026522876520984, 48.944483737843704 ], [ 2.026273974983527, 48.944372422229257 ], [ 2.026179643961304, 48.944464128879666 ], [ 2.026417641750177, 48.94457056964 ], [ 2.02646352635733, 48.944598463331182 ] ] ] ] } },
{ "type": "Feature", "properties": { "id": 76, "CLE_PRIMAI": "76", "id-lot": "B2" }, "geometry": { "type": "MultiPolygon", "coordinates": [ [ [ [ 2.025954190775452, 48.94488100851909 ], [ 2.026211183671702, 48.944631167081951 ], [ 2.026071554345205, 48.94456921114061 ], [ 2.025812987325739, 48.944820583205335 ], [ 2.025954190775452, 48.94488100851909 ] ] ] ] } },
{ "type": "Feature", "properties": { "id": 78, "CLE_PRIMAI": "78", "id-lot": "B3" }, "geometry": { "type": "MultiPolygon", "coordinates": [ [ [ [ 2.026753938007137, 48.944518285331 ], [ 2.027236255790905, 48.944470452980227 ], [ 2.027144243859456, 48.94405913850904 ], [ 2.02694973985798, 48.944077908206296 ], [ 2.027013312991155, 48.944362094971126 ], [ 2.026725216963951, 48.94438989615697 ], [ 2.026753938007137, 48.944518285331 ] ] ] ] } },
{ "type": "Feature", "properties": { "id": 79, "CLE_PRIMAI": "79", "id-lot": "B3" }, "geometry": { "type": "MultiPolygon", "coordinates": [ [ [ [ 2.026476405035418, 48.944373324843149 ], [ 2.026665068342785, 48.944189909812287 ], [ 2.026525439016289, 48.944127953323125 ], [ 2.026336775708919, 48.944311368581708 ], [ 2.026476405035418, 48.944373324843149 ] ] ] ] } },
{ "type": "Feature", "properties": { "id": 80, "CLE_PRIMAI": "80", "id-lot": "B3" }, "geometry": { "type": "MultiPolygon", "coordinates": [ [ [ [ 2.026772536665429, 48.944085430765199 ], [ 2.026961199972796, 48.943902014676212 ], [ 2.026820207814148, 48.943841382761939 ], [ 2.026632907338931, 48.94402347414632 ], [ 2.026772536665429, 48.944085430765199 ] ] ] ] } },
{ "type": "Feature", "properties": { "id": 69, "CLE_PRIMAI": "69", "id-lot": "A1" }, "geometry": { "type": "MultiPolygon", "coordinates": [ [ [ [ 2.028225945065738, 48.944278767890687 ], [ 2.02861425246433, 48.94397609909872 ], [ 2.028324122184217, 48.943815529860352 ], [ 2.028238525255368, 48.943937006666708 ], [ 2.028337237536433, 48.943991637758735 ], [ 2.028075608473816, 48.944195566418323 ], [ 2.028225945065736, 48.944278767890687 ], [ 2.028225945065738, 48.944278767890687 ] ] ] ] } },
{ "type": "Feature", "properties": { "id": 70, "CLE_PRIMAI": "70", "id-lot": "A1" }, "geometry": { "type": "MultiPolygon", "coordinates": [ [ [ [ 2.028485502012844, 48.943735994077116 ], [ 2.028740890942633, 48.943877336370591 ], [ 2.029225839345761, 48.943500414049453 ], [ 2.028752800617572, 48.94335662367282 ], [ 2.028670235527502, 48.943473806603457 ], [ 2.028908952498377, 48.943546369683446 ], [ 2.028717356136559, 48.94369546152015 ], [ 2.028571094871914, 48.94361451452906 ], [ 2.028485502012844, 48.943735994077116 ] ] ] ] } },
{ "type": "Feature", "properties": { "id": 81, "CLE_PRIMAI": "81", "id-lot": "Halle SV" }, "geometry": { "type": "MultiPolygon", "coordinates": [ [ [ [ 2.027989642950523, 48.943504019416103 ], [ 2.028290729994114, 48.943595401431587 ], [ 2.028510534511466, 48.943282981870588 ], [ 2.028207489302578, 48.943188380782331 ], [ 2.028207489302578, 48.943188380782331 ], [ 2.027989642950523, 48.943504019416103 ] ] ] ] } },
{ "type": "Feature", "properties": { "id": 82, "CLE_PRIMAI": "82", "id-lot": "Groupe sco" }, "geometry": { "type": "MultiPolygon", "coordinates": [ [ [ [ 2.028271907730439, 48.940879433258452 ], [ 2.028589357752929, 48.940977983610978 ], [ 2.029098625927545, 48.940304425579846 ], [ 2.028697935028547, 48.940173751013944 ], [ 2.028554475344353, 48.940177337369825 ], [ 2.028404606728076, 48.940375606777323 ], [ 2.028540774644113, 48.940434767718926 ], [ 2.028429231774706, 48.940681676644012 ], [ 2.028347424333045, 48.940710956123354 ], [ 2.028271907730439, 48.940879433258452 ] ] ] ] } },
{ "type": "Feature", "properties": { "id": 92, "CLE_PRIMAI": "92", "id-lot": "P5" }, "geometry": { "type": "MultiPolygon", "coordinates": [ [ [ [ 2.031439591681598, 48.947586439082357 ], [ 2.03155582973448, 48.947534696003522 ], [ 2.03122492589258, 48.947214069820539 ], [ 2.031108687839698, 48.947265813231844 ], [ 2.031439591681598, 48.947586439082357 ] ] ] ] } },
{ "type": "Feature", "properties": { "id": 91, "CLE_PRIMAI": "91", "id-lot": "P4" }, "geometry": { "type": "MultiPolygon", "coordinates": [ [ [ [ 2.03071821251747, 48.947126785033419 ], [ 2.030922724129962, 48.947191717332316 ], [ 2.031222235477142, 48.947058383836101 ], [ 2.031228567671485, 48.947015770737089 ], [ 2.031144230946517, 48.946936948729146 ], [ 2.03071821251747, 48.947126785033419 ] ] ] ] } },
{ "type": "Feature", "properties": { "id": 90, "CLE_PRIMAI": "90", "id-lot": "P3'" }, "geometry": { "type": "MultiPolygon", "coordinates": [ [ [ [ 2.029686403873569, 48.946765085700221 ], [ 2.029773448116855, 48.946741781241656 ], [ 2.029915485623176, 48.946482346923439 ], [ 2.029731320897015, 48.946437145502678 ], [ 2.029571660279539, 48.946728654385517 ], [ 2.029686403873571, 48.9467650857002 ], [ 2.029686403873569, 48.946765085700221 ] ] ] ] } },
{ "type": "Feature", "properties": { "id": 89, "CLE_PRIMAI": "89", "id-lot": "P3'" }, "geometry": { "type": "MultiPolygon", "coordinates": [ [ [ [ 2.029367484511227, 48.946663828115419 ], [ 2.029453050095491, 48.946547584900514 ], [ 2.029394970736213, 48.946529144513718 ], [ 2.029453177440748, 48.946368877867513 ], [ 2.029267611456584, 48.94632333242717 ], [ 2.029167059501583, 48.946600192637824 ], [ 2.029367484511227, 48.946663828115419 ] ] ] ] } },
{ "type": "Feature", "properties": { "id": 88, "CLE_PRIMAI": "88", "id-lot": "P3" }, "geometry": { "type": "MultiPolygon", "coordinates": [ [ [ [ 2.028995905061139, 48.946543361225004 ], [ 2.029075155958907, 48.946518538243808 ], [ 2.029105132957904, 48.946434630607364 ], [ 2.028657839584173, 48.946292612998846 ], [ 2.028633881694351, 48.946138956914055 ], [ 2.028438312220923, 48.946152109866844 ], [ 2.028473451774164, 48.946377480336054 ], [ 2.028995905061139, 48.946543361225004 ] ] ] ] } },
{ "type": "Feature", "properties": { "id": 84, "CLE_PRIMAI": "84", "id-lot": "P2" }, "geometry": { "type": "MultiPolygon", "coordinates": [ [ [ [ 2.028751979748722, 48.946105187210449 ], [ 2.029158572946062, 48.946205048932207 ], [ 2.029205583981511, 48.946098439407677 ], [ 2.028811002987555, 48.946001527750752 ], [ 2.028751979748722, 48.946105187210449 ] ] ] ] } },
{ "type": "Feature", "properties": { "id": 85, "CLE_PRIMAI": "85", "id-lot": "P2" }, "geometry": { "type": "MultiPolygon", "coordinates": [ [ [ [ 2.028716930066798, 48.945810194069956 ], [ 2.02928753042887, 48.945909789636382 ], [ 2.029334417401943, 48.945803460826134 ], [ 2.028760210666539, 48.945703235570299 ], [ 2.028716930066798, 48.945810194069956 ] ] ] ] } },
{ "type": "Feature", "properties": { "id": 83, "CLE_PRIMAI": "83", "id-lot": "P2" }, "geometry": { "type": "MultiPolygon", "coordinates": [ [ [ [ 2.028605961136926, 48.946069324117055 ], [ 2.028674821594639, 48.945948387951098 ], [ 2.028563694325435, 48.945921094308424 ], [ 2.028526189060005, 48.945679801268987 ], [ 2.028330613308209, 48.945692914013009 ], [ 2.028380513866722, 48.946013952792818 ], [ 2.028605961136926, 48.946069324117055 ] ] ] ] } },
{ "type": "Feature", "properties": { "id": 86, "CLE_PRIMAI": "86", "id-lot": "P2'" }, "geometry": { "type": "MultiPolygon", "coordinates": [ [ [ [ 2.029317510304915, 48.946244084844054 ], [ 2.029981027412932, 48.946407048058688 ], [ 2.030038351550484, 48.946302971993084 ], [ 2.02936435252173, 48.946137433933849 ], [ 2.029317510304915, 48.946244084844054 ] ] ] ] } },
{ "type": "Feature", "properties": { "id": 87, "CLE_PRIMAI": "87", "id-lot": "P2'" }, "geometry": { "type": "MultiPolygon", "coordinates": [ [ [ [ 2.029923336261411, 48.946132225610121 ], [ 2.030109748538307, 48.946173345359256 ], [ 2.030174750355807, 48.946035697941717 ], [ 2.030107944398452, 48.945973263370512 ], [ 2.029705167736232, 48.945902960738948 ], [ 2.029654673703203, 48.94602774513352 ], [ 2.02994845992155, 48.946079023915253 ], [ 2.029923336261411, 48.946132225610121 ] ] ] ] } },
{ "type": "Feature", "properties": { "id": null, "CLE_PRIMAI": null, "id-lot": "P7C" }, "geometry": { "type": "MultiPolygon", "coordinates": [ [ [ [ 2.030827813900312, 48.946413177603368 ], [ 2.030977662673619, 48.946344548177848 ], [ 2.030656485923291, 48.946042135295869 ], [ 2.030784592740407, 48.945699372059323 ], [ 2.030571461999907, 48.945670244674332 ], [ 2.030454231066448, 48.945998543438158 ], [ 2.030482259818069, 48.946087516581564 ], [ 2.030827813900312, 48.946413177603368 ] ] ] ] } },
{ "type": "Feature", "properties": { "id": null, "CLE_PRIMAI": null, "id-lot": "P7C" }, "geometry": { "type": "MultiPolygon", "coordinates": [ [ [ [ 2.031247471873703, 48.94622958818011 ], [ 2.031345968311674, 48.94616353000908 ], [ 2.030961347375572, 48.945938462882943 ], [ 2.030867936271374, 48.946007319520753 ], [ 2.031247471873703, 48.94622958818011 ] ] ] ] } },
{ "type": "Feature", "properties": { "id": null, "CLE_PRIMAI": null, "id-lot": "P7B" }, "geometry": { "type": "MultiPolygon", "coordinates": [ [ [ [ 2.03152473177106, 48.94638654600125 ], [ 2.031619160743575, 48.946323231286541 ], [ 2.031415516987398, 48.946192224728556 ], [ 2.031321087990928, 48.946255539625561 ], [ 2.03152473177106, 48.94638654600125 ] ] ] ] } },
{ "type": "Feature", "properties": { "id": null, "CLE_PRIMAI": null, "id-lot": "P7B" }, "geometry": { "type": "MultiPolygon", "coordinates": [ [ [ [ 2.031110288939332, 48.946491389825283 ], [ 2.031202220818493, 48.946448979406043 ], [ 2.031129396518298, 48.946380879969013 ], [ 2.030880027923503, 48.946489171933408 ], [ 2.031289138415601, 48.946871686713465 ], [ 2.031377942954169, 48.946886413356154 ], [ 2.032127790277243, 48.946552277683729 ], [ 2.032048151824785, 48.94650106294651 ], [ 2.031950641712281, 48.946438360659918 ], [ 2.031384856380005, 48.946697438876733 ], [ 2.031110288939332, 48.946491389825283 ] ] ] ] } },
{ "type": "Feature", "properties": { "id": null, "CLE_PRIMAI": null, "id-lot": "P7A" }, "geometry": { "type": "MultiPolygon", "coordinates": [ [ [ [ 2.032414359746943, 48.946037012138014 ], [ 2.032536701949785, 48.946183823576355 ], [ 2.032009557753392, 48.946418723558914 ], [ 2.032180665015823, 48.946528730605884 ], [ 2.032816036986437, 48.946245596336631 ], [ 2.032816039137904, 48.946202156377957 ], [ 2.032498872989955, 48.945997403869022 ], [ 2.032498872989955, 48.945997403869022 ], [ 2.032414359746943, 48.946037012138014 ] ] ] ] } },
{ "type": "Feature", "properties": { "id": null, "CLE_PRIMAI": null, "id-lot": "P7A" }, "geometry": { "type": "MultiPolygon", "coordinates": [ [ [ [ 2.031787085740723, 48.946209821547711 ], [ 2.031877317713017, 48.946143919486033 ], [ 2.031665347469992, 48.946018736679235 ], [ 2.031575117318816, 48.946084640019052 ], [ 2.031787085740723, 48.946209821547711 ] ] ] ] } },
{ "type": "Feature", "properties": { "id": null, "CLE_PRIMAI": null, "id-lot": "P7A" }, "geometry": { "type": "MultiPolygon", "coordinates": [ [ [ [ 2.031887098471186, 48.945876613440831 ], [ 2.03200663745144, 48.945953514897148 ], [ 2.03212507468881, 48.945959716511233 ], [ 2.032195384237407, 48.94591257329845 ], [ 2.032264481685386, 48.945849241085867 ], [ 2.032147466827743, 48.945773939855755 ], [ 2.03203772727678, 48.945750367587806 ], [ 2.031960063201091, 48.945802438416187 ], [ 2.031887098471186, 48.945876613440831 ] ] ] ] } },
{ "type": "Feature", "properties": { "id": null, "CLE_PRIMAI": null, "id-lot": "V1" }, "geometry": { "type": "MultiPolygon", "coordinates": [ [ [ [ 2.029548961968554, 48.944675215259124 ], [ 2.029608093456722, 48.94455208215907 ], [ 2.029527665776364, 48.944535458160594 ], [ 2.029599378485803, 48.944385793621095 ], [ 2.029411853282497, 48.944347032963577 ], [ 2.029281125413038, 48.944619862111843 ], [ 2.029548961968554, 48.944675215259124 ] ] ] ] } },
{ "type": "Feature", "properties": { "id": null, "CLE_PRIMAI": null, "id-lot": "V1" }, "geometry": { "type": "MultiPolygon", "coordinates": [ [ [ [ 2.029076692474871, 48.944569617469917 ], [ 2.029155656714488, 48.944451305869087 ], [ 2.028987050797623, 48.944403089012887 ], [ 2.029345199798828, 48.944126212983143 ], [ 2.029195382200294, 48.944042614258976 ], [ 2.028715507171051, 48.944413588043759 ], [ 2.028736016198812, 48.944471833654788 ], [ 2.029076692474871, 48.944569617469917 ] ] ] ] } },
{ "type": "Feature", "properties": { "id": null, "CLE_PRIMAI": null, "id-lot": "V1" }, "geometry": { "type": "MultiPolygon", "coordinates": [ [ [ [ 2.029852917384372, 48.944304674888848 ], [ 2.029904124496463, 48.944199229253265 ], [ 2.029526717768925, 48.94408419364396 ], [ 2.02945566152112, 48.944184547514205 ], [ 2.029852917384372, 48.944304674888848 ] ] ] ] } },
{ "type": "Feature", "properties": { "id": null, "CLE_PRIMAI": null, "id-lot": "V2" }, "geometry": { "type": "MultiPolygon", "coordinates": [ [ [ [ 2.029852917384372, 48.944304674888848 ], [ 2.030531188426429, 48.944442573273008 ], [ 2.030581017222585, 48.944336848446852 ], [ 2.029904124496463, 48.944199229253265 ], [ 2.029852917384372, 48.944304674888848 ] ] ] ] } },
{ "type": "Feature", "properties": { "id": null, "CLE_PRIMAI": null, "id-lot": "V2" }, "geometry": { "type": "MultiPolygon", "coordinates": [ [ [ [ 2.030102469449276, 48.944770621665803 ], [ 2.030150001431034, 48.944645345982082 ], [ 2.030068263852888, 48.94463186922939 ], [ 2.030135513551122, 48.944488951037783 ], [ 2.029947713188876, 48.944450769463522 ], [ 2.029819092834387, 48.944724241536754 ], [ 2.030102469449276, 48.944770621665803 ] ] ] ] } },
{ "type": "Feature", "properties": { "id": null, "CLE_PRIMAI": null, "id-lot": "V2" }, "geometry": { "type": "MultiPolygon", "coordinates": [ [ [ [ 2.030447273693476, 48.944827055570471 ], [ 2.030525247874707, 48.94479254782231 ], [ 2.030575485181631, 48.94455973153957 ], [ 2.030380801217269, 48.944541669689436 ], [ 2.030323804790525, 48.944806682206469 ], [ 2.030447273693476, 48.944827055570471 ] ] ] ] } },
{ "type": "Feature", "properties": { "id": null, "CLE_PRIMAI": null, "id-lot": "V3" }, "geometry": { "type": "MultiPolygon", "coordinates": [ [ [ [ 2.030278088822242, 48.944169058825892 ], [ 2.030327917618399, 48.944063333420281 ], [ 2.030018154465203, 48.944000355114468 ], [ 2.02979086410274, 48.94393093109327 ], [ 2.029719790417305, 48.944031201406695 ], [ 2.029957435294317, 48.944103866522035 ], [ 2.030278088822242, 48.944169058825892 ] ] ] ] } },
{ "type": "Feature", "properties": { "id": null, "CLE_PRIMAI": null, "id-lot": "V3" }, "geometry": { "type": "MultiPolygon", "coordinates": [ [ [ [ 2.030375103016148, 48.943911892381436 ], [ 2.030451352235087, 48.943813195772492 ], [ 2.030150813609873, 48.943713034878598 ], [ 2.030074564390936, 48.943811731685614 ], [ 2.030375103016148, 48.943911892381436 ] ] ] ] } },
{ "type": "Feature", "properties": { "id": null, "CLE_PRIMAI": null, "id-lot": "V3" }, "geometry": { "type": "MultiPolygon", "coordinates": [ [ [ [ 2.030602930073448, 48.944235102452005 ], [ 2.030676583190591, 48.943893113952178 ], [ 2.030509736523385, 48.943877612975051 ], [ 2.030439884228034, 48.944201953536151 ], [ 2.030602930073448, 48.944235102452005 ] ] ] ] } },
{ "type": "Feature", "properties": { "id": null, "CLE_PRIMAI": null, "id-lot": "V3" }, "geometry": { "type": "MultiPolygon", "coordinates": [ [ [ [ 2.029539066799823, 48.94397628519134 ], [ 2.029859088566847, 48.943728364520233 ], [ 2.029923365062675, 48.943719873107391 ], [ 2.029884599257027, 48.943593286425418 ], [ 2.029754330034946, 48.94361049602032 ], [ 2.029354400580629, 48.943919674567731 ], [ 2.029539066799823, 48.94397628519134 ] ] ] ] } },
{ "type": "Feature", "properties": { "id": null, "CLE_PRIMAI": null, "id-lot": null }, "geometry": { "type": "MultiPolygon", "coordinates": [ [ [ [ 2.030870886712658, 48.94344188342739 ], [ 2.030860468895629, 48.943156050431426 ], [ 2.030736651487452, 48.943157997229811 ], [ 2.030747069304482, 48.943443830214633 ], [ 2.030870886712658, 48.94344188342739 ] ] ] ] } },
{ "type": "Feature", "properties": { "id": null, "CLE_PRIMAI": null, "id-lot": null }, "geometry": { "type": "MultiPolygon", "coordinates": [ [ [ [ 2.03087492614321, 48.943552712425962 ], [ 2.030760338676448, 48.943554514086379 ], [ 2.030280685731863, 48.943398192141622 ], [ 2.030703796698921, 48.943090672720537 ], [ 2.030703796698921, 48.943090672720537 ], [ 2.030511168814895, 48.943014426517131 ], [ 2.029999442462125, 48.943420415710378 ], [ 2.030016184123771, 48.943477105522085 ], [ 2.030803994105888, 48.943739712608107 ], [ 2.030880764799714, 48.943712906324905 ], [ 2.03087492614321, 48.943552712425962 ] ] ] ] } }
]
}
