{
"type": "FeatureCollection",
"name": "ECHELLE_BATIS",
"crs": { "type": "name", "properties": { "name": "urn:ogc:def:crs:EPSG::3857" } },
"features": [
{ "type": "Feature", "properties": { "id": 1, "CLE_PRIMAI": "1", "id-lot": "P7D" }, "geometry": { "type": "MultiPolygon", "coordinates": [ [ [ [ 226104.086153526965063, 6265678.055171830579638 ], [ 226122.444049419253133, 6265667.218025473877788 ], [ 226077.958108414895833, 6265591.82077513076365 ], [ 226084.539264375722269, 6265555.677065622992814 ], [ 226072.831719958921894, 6265548.337962323799729 ], [ 226063.454033519519726, 6265552.473828651942313 ], [ 226055.556516177399317, 6265595.847002580761909 ], [ 226104.086153526965063, 6265678.055171830579638 ] ] ] ] } },
{ "type": "Feature", "properties": { "id": 2, "CLE_PRIMAI": "2", "id-lot": "P7D" }, "geometry": { "type": "MultiPolygon", "coordinates": [ [ [ [ 226140.036805371491937, 6265717.530898780561984 ], [ 226178.92575667827623, 6265677.037035741843283 ], [ 226165.746723189455224, 6265664.380284811370075 ], [ 226126.384581495425664, 6265705.366634042933583 ], [ 226140.036805371491937, 6265717.530898780561984 ] ] ] ] } },
{ "type": "Feature", "properties": { "id": 3, "CLE_PRIMAI": "3", "id-lot": "P7D" }, "geometry": { "type": "MultiPolygon", "coordinates": [ [ [ [ 226136.230041468865238, 6265617.275233111344278 ], [ 226149.010649445815943, 6265604.248680853284895 ], [ 226135.396170596330194, 6265590.89087628480047 ], [ 226113.280971477855928, 6265573.694367110729218 ], [ 226107.388201259600464, 6265569.999590411782265 ], [ 226097.682914545730455, 6265585.481737283058465 ], [ 226123.358357434422942, 6265604.677065616473556 ], [ 226136.230041468865238, 6265617.275233111344278 ] ] ] ] } },
{ "type": "Feature", "properties": { "id": 4, "CLE_PRIMAI": "4", "id-lot": "P7D" }, "geometry": { "type": "MultiPolygon", "coordinates": [ [ [ [ 226186.668263391096843, 6265668.765676369890571 ], [ 226197.319838821247686, 6265657.884073123335838 ], [ 226158.146067138732178, 6265619.538401575759053 ], [ 226147.494491708668647, 6265630.420004821382463 ], [ 226186.668263391096843, 6265668.765676369890571 ] ] ] ] } },
{ "type": "Feature", "properties": { "id": null, "CLE_PRIMAI": null, "id-lot": null }, "geometry": { "type": "MultiPolygon", "coordinates": [ ] } }
]
}
